{
"type": "FeatureCollection",
"name": "beyond_bay",
"crs": { "type": "name", "properties": { "name": "urn:ogc:def:crs:OGC:1.3:CRS84" } },
"xy_coordinate_resolution": 1e-05,
"features": [
{ "type": "Feature", "properties": { "tier": "C", "country": "USA", "state": "CO", "city": "Colorado Springs", "total": 3, "students": 0, "companies": 1, "years": "2020, 2021, 2021" }, "geometry": { "type": "Point", "coordinates": [ -104.767, 38.9497 ] } },
{ "type": "Feature", "properties": { "tier": "C", "country": "USA", "state": "CO", "city": "Fort Collins", "total": 1, "students": 0, "companies": 0, "years": "2024" }, "geometry": { "type": "Point", "coordinates": [ -105.1076, 40.5473 ] } },
{ "type": "Feature", "properties": { "tier": "C", "country": "USA", "state": "DC", "city": "Washington", "total": 1, "students": 1, "companies": 0, "years": "2025" }, "geometry": { "type": "Point", "coordinates": [ -77.086, 38.9381 ] } },
{ "type": "Feature", "properties": { "tier": "C", "country": "USA", "state": "FL", "city": "Tallahassee", "total": 2, "students": 1, "companies": 0, "years": "2022, 2026" }, "geometry": { "type": "Point", "coordinates": [ -84.3189, 30.4874 ] } },
{ "type": "Feature", "properties": { "tier": "C", "country": "USA", "state": "IL", "city": "Champaign", "total": 1, "students": 1, "companies": 0, "years": "2026" }, "geometry": { "type": "Point", "coordinates": [ -88.2407, 40.111 ] } },
{ "type": "Feature", "properties": { "tier": "C", "country": "USA", "state": "IN", "city": "Indianapolis", "total": 1, "students": 1, "companies": 0, "years": "2019" }, "geometry": { "type": "Point", "coordinates": [ -86.1797, 39.8977 ] } },
{ "type": "Feature", "properties": { "tier": "C", "country": "USA", "state": "IN", "city": "Valparaiso", "total": 1, "students": 0, "companies": 0, "years": "2025" }, "geometry": { "type": "Point", "coordinates": [ -87.0656, 41.4547 ] } },
{ "type": "Feature", "properties": { "tier": "C", "country": "USA", "state": "LA", "city": "New Orleans", "total": 1, "students": 1, "companies": 0, "years": "2026" }, "geometry": { "type": "Point", "coordinates": [ -90.0852, 29.9746 ] } },
{ "type": "Feature", "properties": { "tier": "C", "country": "USA", "state": "MD", "city": "Westminster", "total": 1, "students": 1, "companies": 0, "years": "2026" }, "geometry": { "type": "Point", "coordinates": [ -76.9807, 39.5642 ] } },
{ "type": "Feature", "properties": { "tier": "C", "country": "USA", "state": "MI", "city": "Dewitt", "total": 1, "students": 1, "companies": 0, "years": "2026" }, "geometry": { "type": "Point", "coordinates": [ -84.5797, 42.8428 ] } },
{ "type": "Feature", "properties": { "tier": "C", "country": "USA", "state": "MI", "city": "Grandville", "total": 1, "students": 0, "companies": 1, "years": "2022" }, "geometry": { "type": "Point", "coordinates": [ -85.7619, 42.8939 ] } },
{ "type": "Feature", "properties": { "tier": "C", "country": "USA", "state": "NC", "city": "Boone", "total": 1, "students": 1, "companies": 0, "years": "2026" }, "geometry": { "type": "Point", "coordinates": [ -81.666, 36.2142 ] } },
{ "type": "Feature", "properties": { "tier": "C", "country": "USA", "state": "NY", "city": "Bronxville", "total": 1, "students": 0, "companies": 0, "years": "2023" }, "geometry": { "type": "Point", "coordinates": [ -73.8353, 40.9391 ] } },
{ "type": "Feature", "properties": { "tier": "C", "country": "USA", "state": "NY", "city": "Brooklyn", "total": 1, "students": 1, "companies": 0, "years": "2026" }, "geometry": { "type": "Point", "coordinates": [ -73.9467, 40.6281 ] } },
{ "type": "Feature", "properties": { "tier": "C", "country": "USA", "state": "OR", "city": "Medford", "total": 1, "students": 0, "companies": 0, "years": "2023" }, "geometry": { "type": "Point", "coordinates": [ -122.9054, 42.2818 ] } },
{ "type": "Feature", "properties": { "tier": "C", "country": "USA", "state": "PA", "city": "Philadelphia", "total": 1, "students": 1, "companies": 0, "years": "2026" }, "geometry": { "type": "Point", "coordinates": [ -75.1866, 40.0547 ] } },
{ "type": "Feature", "properties": { "tier": "C", "country": "USA", "state": "TX", "city": "Miami", "total": 1, "students": 0, "companies": 0, "years": "2026" }, "geometry": { "type": "Point", "coordinates": [ -100.7027, 35.7193 ] } },
{ "type": "Feature", "properties": { "tier": "C", "country": "USA", "state": "VA", "city": "Yorktown", "total": 1, "students": 0, "companies": 0, "years": "2026" }, "geometry": { "type": "Point", "coordinates": [ -76.4581, 37.1686 ] } },
{ "type": "Feature", "properties": { "tier": "C", "country": "USA", "state": "WA", "city": "Port Orchard", "total": 1, "students": 0, "companies": 0, "years": "2025" }, "geometry": { "type": "Point", "coordinates": [ -122.5871, 47.5427 ] } },
{ "type": "Feature", "properties": { "tier": "D", "country": "Benin", "state": "", "city": "Cotonou", "total": 1, "students": 1, "companies": 0, "years": "2025" }, "geometry": { "type": "Point", "coordinates": [ 2.4183, 6.3654 ] } },
{ "type": "Feature", "properties": { "tier": "D", "country": "Brazil", "state": "", "city": "Brasília", "total": 2, "students": 1, "companies": 0, "years": "2025, 2026" }, "geometry": { "type": "Point", "coordinates": [ -47.8828, -15.7939 ] } },
{ "type": "Feature", "properties": { "tier": "D", "country": "Canada", "state": "", "city": "Brossard", "total": 2, "students": 0, "companies": 1, "years": "2017, 2017" }, "geometry": { "type": "Point", "coordinates": [ -73.45, 45.4667 ] } },
{ "type": "Feature", "properties": { "tier": "D", "country": "Canada", "state": "", "city": "North Vancouver", "total": 1, "students": 0, "companies": 0, "years": "2026" }, "geometry": { "type": "Point", "coordinates": [ -123.0724, 49.32 ] } },
{ "type": "Feature", "properties": { "tier": "D", "country": "Canada", "state": "", "city": "Thunder Bay", "total": 1, "students": 1, "companies": 0, "years": "2026" }, "geometry": { "type": "Point", "coordinates": [ -89.2477, 48.3809 ] } },
{ "type": "Feature", "properties": { "tier": "D", "country": "Chile", "state": "", "city": "Santiago", "total": 1, "students": 0, "companies": 0, "years": "2025" }, "geometry": { "type": "Point", "coordinates": [ -70.6693, -33.4489 ] } },
{ "type": "Feature", "properties": { "tier": "D", "country": "Ireland", "state": "", "city": "Maynooth", "total": 1, "students": 1, "companies": 0, "years": "2026" }, "geometry": { "type": "Point", "coordinates": [ -6.5911, 53.3813 ] } },
{ "type": "Feature", "properties": { "tier": "D", "country": "Sri Lanka", "state": "", "city": "Polonnaruwa", "total": 1, "students": 1, "companies": 0, "years": "2026" }, "geometry": { "type": "Point", "coordinates": [ 81.0188, 7.9403 ] } },
{ "type": "Feature", "properties": { "tier": "D", "country": "Switzerland", "state": "", "city": "Kuesnacht", "total": 1, "students": 1, "companies": 0, "years": "2023" }, "geometry": { "type": "Point", "coordinates": [ 8.5836, 47.3183 ] } }
]
}
