{
"type": "FeatureCollection",
"name": "places",
"crs": { "type": "name", "properties": { "name": "urn:ogc:def:crs:OGC:1.3:CRS84" } },
"xy_coordinate_resolution": 1e-05,
"features": [
{ "type": "Feature", "properties": { "place": "Fremont", "LSAD": "25", "label_rank": 1 }, "geometry": { "type": "Point", "coordinates": [ -121.94129, 37.53013 ] } },
{ "type": "Feature", "properties": { "place": "Clayton", "LSAD": "25", "label_rank": 3 }, "geometry": { "type": "Point", "coordinates": [ -121.92936, 37.93913 ] } },
{ "type": "Feature", "properties": { "place": "Clyde", "LSAD": "57", "label_rank": 3 }, "geometry": { "type": "Point", "coordinates": [ -122.02814, 38.02507 ] } },
{ "type": "Feature", "properties": { "place": "Monument Hills", "LSAD": "57", "label_rank": 3 }, "geometry": { "type": "Point", "coordinates": [ -121.87659, 38.66325 ] } },
{ "type": "Feature", "properties": { "place": "Bayview", "LSAD": "57", "label_rank": 3 }, "geometry": { "type": "Point", "coordinates": [ -122.31711, 38.00829 ] } },
{ "type": "Feature", "properties": { "place": "San Martin", "LSAD": "57", "label_rank": 3 }, "geometry": { "type": "Point", "coordinates": [ -121.59575, 37.08516 ] } },
{ "type": "Feature", "properties": { "place": "Robbins", "LSAD": "57", "label_rank": 3 }, "geometry": { "type": "Point", "coordinates": [ -121.70433, 38.8689 ] } },
{ "type": "Feature", "properties": { "place": "Oakland", "LSAD": "25", "label_rank": 1 }, "geometry": { "type": "Point", "coordinates": [ -122.21033, 37.79233 ] } },
{ "type": "Feature", "properties": { "place": "Richmond", "LSAD": "25", "label_rank": 2 }, "geometry": { "type": "Point", "coordinates": [ -122.30131, 37.95382 ] } },
{ "type": "Feature", "properties": { "place": "San Jose", "LSAD": "25", "label_rank": 1 }, "geometry": { "type": "Point", "coordinates": [ -121.80024, 37.29558 ] } },
{ "type": "Feature", "properties": { "place": "Stockton", "LSAD": "25", "label_rank": 2 }, "geometry": { "type": "Point", "coordinates": [ -121.28304, 37.96322 ] } },
{ "type": "Feature", "properties": { "place": "Sonoma State University", "LSAD": "57", "label_rank": 3 }, "geometry": { "type": "Point", "coordinates": [ -122.67334, 38.33966 ] } },
{ "type": "Feature", "properties": { "place": "Tara Hills", "LSAD": "57", "label_rank": 3 }, "geometry": { "type": "Point", "coordinates": [ -122.31867, 37.994 ] } },
{ "type": "Feature", "properties": { "place": "Loyola", "LSAD": "57", "label_rank": 3 }, "geometry": { "type": "Point", "coordinates": [ -122.09589, 37.34796 ] } },
{ "type": "Feature", "properties": { "place": "El Macero", "LSAD": "57", "label_rank": 3 }, "geometry": { "type": "Point", "coordinates": [ -121.68516, 38.54488 ] } },
{ "type": "Feature", "properties": { "place": "Taft Mosswood", "LSAD": "57", "label_rank": 3 }, "geometry": { "type": "Point", "coordinates": [ -121.28202, 37.91448 ] } },
{ "type": "Feature", "properties": { "place": "Santa Rosa", "LSAD": "25", "label_rank": 1 }, "geometry": { "type": "Point", "coordinates": [ -122.70884, 38.45249 ] } },
{ "type": "Feature", "properties": { "place": "Fairfield", "LSAD": "25", "label_rank": 2 }, "geometry": { "type": "Point", "coordinates": [ -122.07677, 38.23633 ] } },
{ "type": "Feature", "properties": { "place": "Isleton", "LSAD": "25", "label_rank": 3 }, "geometry": { "type": "Point", "coordinates": [ -121.60934, 38.16181 ] } },
{ "type": "Feature", "properties": { "place": "Capitola", "LSAD": "25", "label_rank": 3 }, "geometry": { "type": "Point", "coordinates": [ -121.95672, 36.97622 ] } },
{ "type": "Feature", "properties": { "place": "Ross", "LSAD": "43", "label_rank": 3 }, "geometry": { "type": "Point", "coordinates": [ -122.55998, 37.96436 ] } },
{ "type": "Feature", "properties": { "place": "Los Gatos", "LSAD": "43", "label_rank": 2 }, "geometry": { "type": "Point", "coordinates": [ -121.94691, 37.23239 ] } },
{ "type": "Feature", "properties": { "place": "La Riviera", "LSAD": "57", "label_rank": 3 }, "geometry": { "type": "Point", "coordinates": [ -121.34896, 38.57013 ] } },
{ "type": "Feature", "properties": { "place": "Walnut Creek", "LSAD": "25", "label_rank": 1 }, "geometry": { "type": "Point", "coordinates": [ -122.01823, 37.89426 ] } },
{ "type": "Feature", "properties": { "place": "Graton", "LSAD": "57", "label_rank": 3 }, "geometry": { "type": "Point", "coordinates": [ -122.86656, 38.44001 ] } },
{ "type": "Feature", "properties": { "place": "Pajaro", "LSAD": "57", "label_rank": 3 }, "geometry": { "type": "Point", "coordinates": [ -121.74053, 36.90117 ] } },
{ "type": "Feature", "properties": { "place": "Woodacre", "LSAD": "57", "label_rank": 3 }, "geometry": { "type": "Point", "coordinates": [ -122.6379, 38.00437 ] } },
{ "type": "Feature", "properties": { "place": "Mount Hermon", "LSAD": "57", "label_rank": 3 }, "geometry": { "type": "Point", "coordinates": [ -122.05707, 37.05014 ] } },
{ "type": "Feature", "properties": { "place": "Paradise Park", "LSAD": "57", "label_rank": 3 }, "geometry": { "type": "Point", "coordinates": [ -122.04081, 37.00462 ] } },
{ "type": "Feature", "properties": { "place": "Bodega", "LSAD": "57", "label_rank": 3 }, "geometry": { "type": "Point", "coordinates": [ -122.9737, 38.35009 ] } },
{ "type": "Feature", "properties": { "place": "Salmon Creek", "LSAD": "57", "label_rank": 3 }, "geometry": { "type": "Point", "coordinates": [ -123.05776, 38.34576 ] } },
{ "type": "Feature", "properties": { "place": "Castle Hill", "LSAD": "57", "label_rank": 3 }, "geometry": { "type": "Point", "coordinates": [ -122.05838, 37.87236 ] } },
{ "type": "Feature", "properties": { "place": "Collierville", "LSAD": "57", "label_rank": 3 }, "geometry": { "type": "Point", "coordinates": [ -121.26713, 38.20737 ] } },
{ "type": "Feature", "properties": { "place": "Courtland", "LSAD": "57", "label_rank": 3 }, "geometry": { "type": "Point", "coordinates": [ -121.55544, 38.33285 ] } },
{ "type": "Feature", "properties": { "place": "Freeport", "LSAD": "57", "label_rank": 3 }, "geometry": { "type": "Point", "coordinates": [ -121.50175, 38.46244 ] } },
{ "type": "Feature", "properties": { "place": "Elverta", "LSAD": "57", "label_rank": 3 }, "geometry": { "type": "Point", "coordinates": [ -121.44413, 38.71595 ] } },
{ "type": "Feature", "properties": { "place": "Pleasure Point", "LSAD": "57", "label_rank": 3 }, "geometry": { "type": "Point", "coordinates": [ -121.97115, 36.96243 ] } },
{ "type": "Feature", "properties": { "place": "Morada", "LSAD": "57", "label_rank": 3 }, "geometry": { "type": "Point", "coordinates": [ -121.2465, 38.04127 ] } },
{ "type": "Feature", "properties": { "place": "Broadmoor", "LSAD": "57", "label_rank": 3 }, "geometry": { "type": "Point", "coordinates": [ -122.48227, 37.69148 ] } },
{ "type": "Feature", "properties": { "place": "Rollingwood", "LSAD": "57", "label_rank": 3 }, "geometry": { "type": "Point", "coordinates": [ -122.33064, 37.96573 ] } },
{ "type": "Feature", "properties": { "place": "San Geronimo", "LSAD": "57", "label_rank": 3 }, "geometry": { "type": "Point", "coordinates": [ -122.66137, 38.00672 ] } },
{ "type": "Feature", "properties": { "place": "East Richmond Heights", "LSAD": "57", "label_rank": 3 }, "geometry": { "type": "Point", "coordinates": [ -122.31616, 37.94677 ] } },
{ "type": "Feature", "properties": { "place": "Petaluma Center", "LSAD": "57", "label_rank": 3 }, "geometry": { "type": "Point", "coordinates": [ -122.78782, 38.24991 ] } },
{ "type": "Feature", "properties": { "place": "Fruitdale", "LSAD": "57", "label_rank": 3 }, "geometry": { "type": "Point", "coordinates": [ -121.93525, 37.31348 ] } },
{ "type": "Feature", "properties": { "place": "Eldridge", "LSAD": "57", "label_rank": 3 }, "geometry": { "type": "Point", "coordinates": [ -122.50724, 38.33488 ] } },
{ "type": "Feature", "properties": { "place": "Twin Lakes", "LSAD": "57", "label_rank": 3 }, "geometry": { "type": "Point", "coordinates": [ -121.98878, 36.96488 ] } },
{ "type": "Feature", "properties": { "place": "Sacramento", "LSAD": "25", "label_rank": 1 }, "geometry": { "type": "Point", "coordinates": [ -121.45009, 38.56195 ] } },
{ "type": "Feature", "properties": { "place": "Sausalito", "LSAD": "25", "label_rank": 2 }, "geometry": { "type": "Point", "coordinates": [ -122.49385, 37.85796 ] } },
{ "type": "Feature", "properties": { "place": "Hayward", "LSAD": "25", "label_rank": 2 }, "geometry": { "type": "Point", "coordinates": [ -122.09219, 37.62495 ] } },
{ "type": "Feature", "properties": { "place": "Terminous", "LSAD": "57", "label_rank": 3 }, "geometry": { "type": "Point", "coordinates": [ -121.48783, 38.11682 ] } },
{ "type": "Feature", "properties": { "place": "Rio Linda", "LSAD": "57", "label_rank": 3 }, "geometry": { "type": "Point", "coordinates": [ -121.44331, 38.68791 ] } },
{ "type": "Feature", "properties": { "place": "Fair Oaks", "LSAD": "57", "label_rank": 3 }, "geometry": { "type": "Point", "coordinates": [ -121.24255, 38.64967 ] } },
{ "type": "Feature", "properties": { "place": "Bay Point", "LSAD": "57", "label_rank": 3 }, "geometry": { "type": "Point", "coordinates": [ -121.95873, 38.03272 ] } },
{ "type": "Feature", "properties": { "place": "Acalanes Ridge", "LSAD": "57", "label_rank": 3 }, "geometry": { "type": "Point", "coordinates": [ -122.07798, 37.90757 ] } },
{ "type": "Feature", "properties": { "place": "Emeryville", "LSAD": "25", "label_rank": 2 }, "geometry": { "type": "Point", "coordinates": [ -122.30023, 37.83858 ] } },
{ "type": "Feature", "properties": { "place": "Corte Madera", "LSAD": "43", "label_rank": 3 }, "geometry": { "type": "Point", "coordinates": [ -122.51653, 37.92456 ] } },
{ "type": "Feature", "properties": { "place": "Burlingame", "LSAD": "25", "label_rank": 3 }, "geometry": { "type": "Point", "coordinates": [ -122.36428, 37.58597 ] } },
{ "type": "Feature", "properties": { "place": "Baywood Park", "LSAD": "57", "label_rank": 3 }, "geometry": { "type": "Point", "coordinates": [ -122.34361, 37.53067 ] } },
{ "type": "Feature", "properties": { "place": "Tomales", "LSAD": "57", "label_rank": 3 }, "geometry": { "type": "Point", "coordinates": [ -122.90631, 38.24672 ] } },
{ "type": "Feature", "properties": { "place": "Woodland", "LSAD": "25", "label_rank": 2 }, "geometry": { "type": "Point", "coordinates": [ -121.75602, 38.67557 ] } },
{ "type": "Feature", "properties": { "place": "Mountain House", "LSAD": "57", "label_rank": 3 }, "geometry": { "type": "Point", "coordinates": [ -121.5443, 37.76958 ] } },
{ "type": "Feature", "properties": { "place": "Thornton", "LSAD": "57", "label_rank": 3 }, "geometry": { "type": "Point", "coordinates": [ -121.42172, 38.22897 ] } },
{ "type": "Feature", "properties": { "place": "Pacifica", "LSAD": "25", "label_rank": 3 }, "geometry": { "type": "Point", "coordinates": [ -122.47447, 37.61652 ] } },
{ "type": "Feature", "properties": { "place": "Moraga", "LSAD": "43", "label_rank": 3 }, "geometry": { "type": "Point", "coordinates": [ -122.11741, 37.84203 ] } },
{ "type": "Feature", "properties": { "place": "San Mateo", "LSAD": "25", "label_rank": 2 }, "geometry": { "type": "Point", "coordinates": [ -122.31083, 37.5521 ] } },
{ "type": "Feature", "properties": { "place": "Mountain View", "LSAD": "25", "label_rank": 2 }, "geometry": { "type": "Point", "coordinates": [ -122.09534, 37.40316 ] } },
{ "type": "Feature", "properties": { "place": "Hercules", "LSAD": "25", "label_rank": 3 }, "geometry": { "type": "Point", "coordinates": [ -122.27066, 38.01 ] } },
{ "type": "Feature", "properties": { "place": "San Francisco", "LSAD": "25", "label_rank": 1 }, "geometry": { "type": "Point", "coordinates": [ -122.44659, 37.7584 ] } },
{ "type": "Feature", "properties": { "place": "Petaluma", "LSAD": "25", "label_rank": 2 }, "geometry": { "type": "Point", "coordinates": [ -122.62256, 38.2437 ] } },
{ "type": "Feature", "properties": { "place": "Saratoga", "LSAD": "25", "label_rank": 3 }, "geometry": { "type": "Point", "coordinates": [ -122.02945, 37.26819 ] } },
{ "type": "Feature", "properties": { "place": "Lathrop", "LSAD": "25", "label_rank": 3 }, "geometry": { "type": "Point", "coordinates": [ -121.29391, 37.80918 ] } },
{ "type": "Feature", "properties": { "place": "Tiburon", "LSAD": "43", "label_rank": 3 }, "geometry": { "type": "Point", "coordinates": [ -122.48356, 37.89649 ] } },
{ "type": "Feature", "properties": { "place": "Foster City", "LSAD": "25", "label_rank": 3 }, "geometry": { "type": "Point", "coordinates": [ -122.26339, 37.55459 ] } },
{ "type": "Feature", "properties": { "place": "Napa", "LSAD": "25", "label_rank": 2 }, "geometry": { "type": "Point", "coordinates": [ -122.28588, 38.28866 ] } },
{ "type": "Feature", "properties": { "place": "American Canyon", "LSAD": "25", "label_rank": 3 }, "geometry": { "type": "Point", "coordinates": [ -122.25922, 38.18261 ] } },
{ "type": "Feature", "properties": { "place": "Menlo Park", "LSAD": "25", "label_rank": 2 }, "geometry": { "type": "Point", "coordinates": [ -122.15951, 37.46231 ] } },
{ "type": "Feature", "properties": { "place": "Dublin", "LSAD": "25", "label_rank": 2 }, "geometry": { "type": "Point", "coordinates": [ -121.88947, 37.72148 ] } },
{ "type": "Feature", "properties": { "place": "Shell Ridge", "LSAD": "57", "label_rank": 3 }, "geometry": { "type": "Point", "coordinates": [ -122.03242, 37.90489 ] } },
{ "type": "Feature", "properties": { "place": "Silverado Resort", "LSAD": "57", "label_rank": 3 }, "geometry": { "type": "Point", "coordinates": [ -122.25582, 38.35468 ] } },
{ "type": "Feature", "properties": { "place": "Larkfield-Wikiup", "LSAD": "57", "label_rank": 3 }, "geometry": { "type": "Point", "coordinates": [ -122.75347, 38.51021 ] } },
{ "type": "Feature", "properties": { "place": "Montalvin Manor", "LSAD": "57", "label_rank": 3 }, "geometry": { "type": "Point", "coordinates": [ -122.33088, 37.99764 ] } },
{ "type": "Feature", "properties": { "place": "Foothill Farms", "LSAD": "57", "label_rank": 3 }, "geometry": { "type": "Point", "coordinates": [ -121.34474, 38.6865 ] } },
{ "type": "Feature", "properties": { "place": "Clarksburg", "LSAD": "57", "label_rank": 3 }, "geometry": { "type": "Point", "coordinates": [ -121.54161, 38.41885 ] } },
{ "type": "Feature", "properties": { "place": "Los Altos", "LSAD": "25", "label_rank": 3 }, "geometry": { "type": "Point", "coordinates": [ -122.10887, 37.36806 ] } },
{ "type": "Feature", "properties": { "place": "Bolinas", "LSAD": "57", "label_rank": 3 }, "geometry": { "type": "Point", "coordinates": [ -122.71072, 37.92024 ] } },
{ "type": "Feature", "properties": { "place": "Lincoln Village", "LSAD": "57", "label_rank": 3 }, "geometry": { "type": "Point", "coordinates": [ -121.33058, 38.00628 ] } },
{ "type": "Feature", "properties": { "place": "Alamo", "LSAD": "57", "label_rank": 3 }, "geometry": { "type": "Point", "coordinates": [ -122.00665, 37.85533 ] } },
{ "type": "Feature", "properties": { "place": "Antelope", "LSAD": "57", "label_rank": 3 }, "geometry": { "type": "Point", "coordinates": [ -121.35888, 38.71569 ] } },
{ "type": "Feature", "properties": { "place": "Emerald Lake Hills", "LSAD": "57", "label_rank": 3 }, "geometry": { "type": "Point", "coordinates": [ -122.26518, 37.46588 ] } },
{ "type": "Feature", "properties": { "place": "Woodbridge", "LSAD": "57", "label_rank": 3 }, "geometry": { "type": "Point", "coordinates": [ -121.31019, 38.17145 ] } },
{ "type": "Feature", "properties": { "place": "Lompico", "LSAD": "57", "label_rank": 3 }, "geometry": { "type": "Point", "coordinates": [ -122.05135, 37.10981 ] } },
{ "type": "Feature", "properties": { "place": "Rutherford", "LSAD": "57", "label_rank": 3 }, "geometry": { "type": "Point", "coordinates": [ -122.42132, 38.45758 ] } },
{ "type": "Feature", "properties": { "place": "Castro Valley", "LSAD": "57", "label_rank": 3 }, "geometry": { "type": "Point", "coordinates": [ -122.07195, 37.71328 ] } },
{ "type": "Feature", "properties": { "place": "Ben Lomond", "LSAD": "57", "label_rank": 3 }, "geometry": { "type": "Point", "coordinates": [ -122.08496, 37.07583 ] } },
{ "type": "Feature", "properties": { "place": "Lagunitas-Forest Knolls", "LSAD": "57", "label_rank": 3 }, "geometry": { "type": "Point", "coordinates": [ -122.68723, 38.01752 ] } },
{ "type": "Feature", "properties": { "place": "Corralitos", "LSAD": "57", "label_rank": 3 }, "geometry": { "type": "Point", "coordinates": [ -121.78988, 36.99506 ] } },
{ "type": "Feature", "properties": { "place": "Diablo Grande", "LSAD": "57", "label_rank": 3 }, "geometry": { "type": "Point", "coordinates": [ -121.26273, 37.40101 ] } },
{ "type": "Feature", "properties": { "place": "San Lorenzo", "LSAD": "57", "label_rank": 3 }, "geometry": { "type": "Point", "coordinates": [ -122.13187, 37.67415 ] } },
{ "type": "Feature", "properties": { "place": "Fruitridge Pocket", "LSAD": "57", "label_rank": 3 }, "geometry": { "type": "Point", "coordinates": [ -121.45916, 38.53217 ] } },
{ "type": "Feature", "properties": { "place": "North Fair Oaks", "LSAD": "57", "label_rank": 3 }, "geometry": { "type": "Point", "coordinates": [ -122.20179, 37.47586 ] } },
{ "type": "Feature", "properties": { "place": "Knightsen", "LSAD": "57", "label_rank": 3 }, "geometry": { "type": "Point", "coordinates": [ -121.64909, 37.9616 ] } },
{ "type": "Feature", "properties": { "place": "Bethel Island", "LSAD": "57", "label_rank": 3 }, "geometry": { "type": "Point", "coordinates": [ -121.64012, 38.02868 ] } },
{ "type": "Feature", "properties": { "place": "San Leandro", "LSAD": "25", "label_rank": 2 }, "geometry": { "type": "Point", "coordinates": [ -122.16507, 37.70544 ] } },
{ "type": "Feature", "properties": { "place": "Lafayette", "LSAD": "25", "label_rank": 2 }, "geometry": { "type": "Point", "coordinates": [ -122.12364, 37.89496 ] } },
{ "type": "Feature", "properties": { "place": "Martinez", "LSAD": "25", "label_rank": 2 }, "geometry": { "type": "Point", "coordinates": [ -122.12, 38.00023 ] } },
{ "type": "Feature", "properties": { "place": "Orinda", "LSAD": "25", "label_rank": 2 }, "geometry": { "type": "Point", "coordinates": [ -122.17216, 37.88048 ] } },
{ "type": "Feature", "properties": { "place": "Pinole", "LSAD": "25", "label_rank": 3 }, "geometry": { "type": "Point", "coordinates": [ -122.2908, 37.99439 ] } },
{ "type": "Feature", "properties": { "place": "Alameda", "LSAD": "25", "label_rank": 2 }, "geometry": { "type": "Point", "coordinates": [ -122.24607, 37.76008 ] } },
{ "type": "Feature", "properties": { "place": "Pleasanton", "LSAD": "25", "label_rank": 2 }, "geometry": { "type": "Point", "coordinates": [ -121.87143, 37.66175 ] } },
{ "type": "Feature", "properties": { "place": "Ashland", "LSAD": "57", "label_rank": 3 }, "geometry": { "type": "Point", "coordinates": [ -122.11491, 37.69671 ] } },
{ "type": "Feature", "properties": { "place": "Byron", "LSAD": "57", "label_rank": 3 }, "geometry": { "type": "Point", "coordinates": [ -121.63826, 37.87073 ] } },
{ "type": "Feature", "properties": { "place": "Freedom", "LSAD": "57", "label_rank": 3 }, "geometry": { "type": "Point", "coordinates": [ -121.80202, 36.93802 ] } },
{ "type": "Feature", "properties": { "place": "Brookdale", "LSAD": "57", "label_rank": 3 }, "geometry": { "type": "Point", "coordinates": [ -122.11196, 37.10546 ] } },
{ "type": "Feature", "properties": { "place": "Gilroy", "LSAD": "25", "label_rank": 2 }, "geometry": { "type": "Point", "coordinates": [ -121.59166, 37.01082 ] } },
{ "type": "Feature", "properties": { "place": "San Ramon", "LSAD": "25", "label_rank": 2 }, "geometry": { "type": "Point", "coordinates": [ -121.93326, 37.75842 ] } },
{ "type": "Feature", "properties": { "place": "Los Altos Hills", "LSAD": "43", "label_rank": 3 }, "geometry": { "type": "Point", "coordinates": [ -122.14626, 37.36808 ] } },
{ "type": "Feature", "properties": { "place": "Monte Sereno", "LSAD": "25", "label_rank": 3 }, "geometry": { "type": "Point", "coordinates": [ -121.99016, 37.23917 ] } },
{ "type": "Feature", "properties": { "place": "Morgan Hill", "LSAD": "25", "label_rank": 2 }, "geometry": { "type": "Point", "coordinates": [ -121.64794, 37.12938 ] } },
{ "type": "Feature", "properties": { "place": "Palo Alto", "LSAD": "25", "label_rank": 1 }, "geometry": { "type": "Point", "coordinates": [ -122.18135, 37.37611 ] } },
{ "type": "Feature", "properties": { "place": "Santa Clara", "LSAD": "25", "label_rank": 2 }, "geometry": { "type": "Point", "coordinates": [ -121.95995, 37.37098 ] } },
{ "type": "Feature", "properties": { "place": "Lodi", "LSAD": "25", "label_rank": 3 }, "geometry": { "type": "Point", "coordinates": [ -121.27954, 38.12619 ] } },
{ "type": "Feature", "properties": { "place": "Manteca", "LSAD": "25", "label_rank": 3 }, "geometry": { "type": "Point", "coordinates": [ -121.22089, 37.80359 ] } },
{ "type": "Feature", "properties": { "place": "Highlands", "LSAD": "57", "label_rank": 3 }, "geometry": { "type": "Point", "coordinates": [ -122.34691, 37.52035 ] } },
{ "type": "Feature", "properties": { "place": "Cotati", "LSAD": "25", "label_rank": 3 }, "geometry": { "type": "Point", "coordinates": [ -122.71546, 38.32892 ] } },
{ "type": "Feature", "properties": { "place": "Dixon", "LSAD": "25", "label_rank": 3 }, "geometry": { "type": "Point", "coordinates": [ -121.83025, 38.45633 ] } },
{ "type": "Feature", "properties": { "place": "Rio Vista", "LSAD": "25", "label_rank": 3 }, "geometry": { "type": "Point", "coordinates": [ -121.6999, 38.17335 ] } },
{ "type": "Feature", "properties": { "place": "Rohnert Park", "LSAD": "25", "label_rank": 3 }, "geometry": { "type": "Point", "coordinates": [ -122.69896, 38.34336 ] } },
{ "type": "Feature", "properties": { "place": "Sebastopol", "LSAD": "25", "label_rank": 3 }, "geometry": { "type": "Point", "coordinates": [ -122.83046, 38.39838 ] } },
{ "type": "Feature", "properties": { "place": "Sonoma", "LSAD": "25", "label_rank": 2 }, "geometry": { "type": "Point", "coordinates": [ -122.46131, 38.29127 ] } },
{ "type": "Feature", "properties": { "place": "Windsor", "LSAD": "43", "label_rank": 3 }, "geometry": { "type": "Point", "coordinates": [ -122.80626, 38.54202 ] } },
{ "type": "Feature", "properties": { "place": "Suisun City", "LSAD": "25", "label_rank": 3 }, "geometry": { "type": "Point", "coordinates": [ -122.00781, 38.24724 ] } },
{ "type": "Feature", "properties": { "place": "Vacaville", "LSAD": "25", "label_rank": 2 }, "geometry": { "type": "Point", "coordinates": [ -121.97654, 38.36306 ] } },
{ "type": "Feature", "properties": { "place": "West Sacramento", "LSAD": "25", "label_rank": 3 }, "geometry": { "type": "Point", "coordinates": [ -121.54849, 38.55308 ] } },
{ "type": "Feature", "properties": { "place": "Winters", "LSAD": "25", "label_rank": 3 }, "geometry": { "type": "Point", "coordinates": [ -121.9715, 38.5279 ] } },
{ "type": "Feature", "properties": { "place": "St. Helena", "LSAD": "25", "label_rank": 3 }, "geometry": { "type": "Point", "coordinates": [ -122.46381, 38.50483 ] } },
{ "type": "Feature", "properties": { "place": "Citrus Heights", "LSAD": "25", "label_rank": 3 }, "geometry": { "type": "Point", "coordinates": [ -121.29441, 38.69306 ] } },
{ "type": "Feature", "properties": { "place": "Galt", "LSAD": "25", "label_rank": 3 }, "geometry": { "type": "Point", "coordinates": [ -121.30321, 38.26332 ] } },
{ "type": "Feature", "properties": { "place": "Loomis", "LSAD": "43", "label_rank": 3 }, "geometry": { "type": "Point", "coordinates": [ -121.18509, 38.80614 ] } },
{ "type": "Feature", "properties": { "place": "August", "LSAD": "57", "label_rank": 3 }, "geometry": { "type": "Point", "coordinates": [ -121.26176, 37.98104 ] } },
{ "type": "Feature", "properties": { "place": "Alum Rock", "LSAD": "57", "label_rank": 3 }, "geometry": { "type": "Point", "coordinates": [ -121.8238, 37.36921 ] } },
{ "type": "Feature", "properties": { "place": "Burbank", "LSAD": "57", "label_rank": 3 }, "geometry": { "type": "Point", "coordinates": [ -121.93214, 37.31901 ] } },
{ "type": "Feature", "properties": { "place": "East Foothills", "LSAD": "57", "label_rank": 3 }, "geometry": { "type": "Point", "coordinates": [ -121.812, 37.38232 ] } },
{ "type": "Feature", "properties": { "place": "Stanford", "LSAD": "57", "label_rank": 2 }, "geometry": { "type": "Point", "coordinates": [ -122.17142, 37.42505 ] } },
{ "type": "Feature", "properties": { "place": "Blackhawk", "LSAD": "57", "label_rank": 3 }, "geometry": { "type": "Point", "coordinates": [ -121.91655, 37.81896 ] } },
{ "type": "Feature", "properties": { "place": "Mountain View", "LSAD": "57", "label_rank": 2 }, "geometry": { "type": "Point", "coordinates": [ -122.11628, 38.00979 ] } },
{ "type": "Feature", "properties": { "place": "Pacheco", "LSAD": "57", "label_rank": 3 }, "geometry": { "type": "Point", "coordinates": [ -122.06981, 37.98966 ] } },
{ "type": "Feature", "properties": { "place": "Vine Hill", "LSAD": "57", "label_rank": 3 }, "geometry": { "type": "Point", "coordinates": [ -122.08694, 38.00567 ] } },
{ "type": "Feature", "properties": { "place": "Lincoln", "LSAD": "25", "label_rank": 3 }, "geometry": { "type": "Point", "coordinates": [ -121.2844, 38.87786 ] } },
{ "type": "Feature", "properties": { "place": "San Carlos", "LSAD": "25", "label_rank": 3 }, "geometry": { "type": "Point", "coordinates": [ -122.26104, 37.49822 ] } },
{ "type": "Feature", "properties": { "place": "South San Francisco", "LSAD": "25", "label_rank": 2 }, "geometry": { "type": "Point", "coordinates": [ -122.40666, 37.65384 ] } },
{ "type": "Feature", "properties": { "place": "Belmont", "LSAD": "25", "label_rank": 3 }, "geometry": { "type": "Point", "coordinates": [ -122.2975, 37.51596 ] } },
{ "type": "Feature", "properties": { "place": "East Palo Alto", "LSAD": "25", "label_rank": 3 }, "geometry": { "type": "Point", "coordinates": [ -122.13625, 37.4682 ] } },
{ "type": "Feature", "properties": { "place": "Half Moon Bay", "LSAD": "25", "label_rank": 2 }, "geometry": { "type": "Point", "coordinates": [ -122.43601, 37.47301 ] } },
{ "type": "Feature", "properties": { "place": "Redwood City", "LSAD": "25", "label_rank": 2 }, "geometry": { "type": "Point", "coordinates": [ -122.20349, 37.50099 ] } },
{ "type": "Feature", "properties": { "place": "San Bruno", "LSAD": "25", "label_rank": 3 }, "geometry": { "type": "Point", "coordinates": [ -122.42927, 37.62337 ] } },
{ "type": "Feature", "properties": { "place": "Santa Cruz", "LSAD": "25", "label_rank": 1 }, "geometry": { "type": "Point", "coordinates": [ -122.02795, 36.97917 ] } },
{ "type": "Feature", "properties": { "place": "Belvedere", "LSAD": "25", "label_rank": 3 }, "geometry": { "type": "Point", "coordinates": [ -122.46446, 37.87203 ] } },
{ "type": "Feature", "properties": { "place": "Larkspur", "LSAD": "25", "label_rank": 3 }, "geometry": { "type": "Point", "coordinates": [ -122.53197, 37.94012 ] } },
{ "type": "Feature", "properties": { "place": "Mill Valley", "LSAD": "25", "label_rank": 2 }, "geometry": { "type": "Point", "coordinates": [ -122.54656, 37.90782 ] } },
{ "type": "Feature", "properties": { "place": "Novato", "LSAD": "25", "label_rank": 2 }, "geometry": { "type": "Point", "coordinates": [ -122.54403, 38.09405 ] } },
{ "type": "Feature", "properties": { "place": "San Rafael", "LSAD": "25", "label_rank": 1 }, "geometry": { "type": "Point", "coordinates": [ -122.50872, 37.98596 ] } },
{ "type": "Feature", "properties": { "place": "Brentwood", "LSAD": "25", "label_rank": 2 }, "geometry": { "type": "Point", "coordinates": [ -121.71672, 37.92905 ] } },
{ "type": "Feature", "properties": { "place": "Arden-Arcade", "LSAD": "57", "label_rank": 3 }, "geometry": { "type": "Point", "coordinates": [ -121.38761, 38.60577 ] } },
{ "type": "Feature", "properties": { "place": "Carmichael", "LSAD": "57", "label_rank": 3 }, "geometry": { "type": "Point", "coordinates": [ -121.32346, 38.63395 ] } },
{ "type": "Feature", "properties": { "place": "Florin", "LSAD": "57", "label_rank": 3 }, "geometry": { "type": "Point", "coordinates": [ -121.40998, 38.47993 ] } },
{ "type": "Feature", "properties": { "place": "Livermore", "LSAD": "25", "label_rank": 2 }, "geometry": { "type": "Point", "coordinates": [ -121.7558, 37.68025 ] } },
{ "type": "Feature", "properties": { "place": "Campbell", "LSAD": "25", "label_rank": 3 }, "geometry": { "type": "Point", "coordinates": [ -121.94952, 37.28078 ] } },
{ "type": "Feature", "properties": { "place": "Fairfax", "LSAD": "43", "label_rank": 3 }, "geometry": { "type": "Point", "coordinates": [ -122.59208, 37.99205 ] } },
{ "type": "Feature", "properties": { "place": "Portola Valley", "LSAD": "43", "label_rank": 3 }, "geometry": { "type": "Point", "coordinates": [ -122.22586, 37.36977 ] } },
{ "type": "Feature", "properties": { "place": "Sunnyvale", "LSAD": "25", "label_rank": 2 }, "geometry": { "type": "Point", "coordinates": [ -122.01692, 37.38936 ] } },
{ "type": "Feature", "properties": { "place": "Antioch", "LSAD": "25", "label_rank": 2 }, "geometry": { "type": "Point", "coordinates": [ -121.79413, 37.97686 ] } },
{ "type": "Feature", "properties": { "place": "Newark", "LSAD": "25", "label_rank": 3 }, "geometry": { "type": "Point", "coordinates": [ -122.0281, 37.51993 ] } },
{ "type": "Feature", "properties": { "place": "Berkeley", "LSAD": "25", "label_rank": 1 }, "geometry": { "type": "Point", "coordinates": [ -122.27834, 37.87732 ] } },
{ "type": "Feature", "properties": { "place": "Davis", "LSAD": "25", "label_rank": 1 }, "geometry": { "type": "Point", "coordinates": [ -121.7437, 38.55525 ] } },
{ "type": "Feature", "properties": { "place": "Granite Bay", "LSAD": "57", "label_rank": 3 }, "geometry": { "type": "Point", "coordinates": [ -121.18473, 38.76281 ] } },
{ "type": "Feature", "properties": { "place": "Bodega Bay", "LSAD": "57", "label_rank": 3 }, "geometry": { "type": "Point", "coordinates": [ -123.02877, 38.32202 ] } },
{ "type": "Feature", "properties": { "place": "Green Valley", "LSAD": "57", "label_rank": 3 }, "geometry": { "type": "Point", "coordinates": [ -122.16052, 38.26841 ] } },
{ "type": "Feature", "properties": { "place": "Occidental", "LSAD": "57", "label_rank": 3 }, "geometry": { "type": "Point", "coordinates": [ -122.93161, 38.40126 ] } },
{ "type": "Feature", "properties": { "place": "Deer Park", "LSAD": "57", "label_rank": 3 }, "geometry": { "type": "Point", "coordinates": [ -122.46931, 38.53487 ] } },
{ "type": "Feature", "properties": { "place": "Yountville", "LSAD": "25", "label_rank": 3 }, "geometry": { "type": "Point", "coordinates": [ -122.35846, 38.39638 ] } },
{ "type": "Feature", "properties": { "place": "Boulder Creek", "LSAD": "57", "label_rank": 3 }, "geometry": { "type": "Point", "coordinates": [ -122.12218, 37.13751 ] } },
{ "type": "Feature", "properties": { "place": "Day Valley", "LSAD": "57", "label_rank": 3 }, "geometry": { "type": "Point", "coordinates": [ -121.86295, 37.02904 ] } },
{ "type": "Feature", "properties": { "place": "Live Oak", "LSAD": "57", "label_rank": 3 }, "geometry": { "type": "Point", "coordinates": [ -121.97878, 36.99099 ] } },
{ "type": "Feature", "properties": { "place": "El Granada", "LSAD": "57", "label_rank": 3 }, "geometry": { "type": "Point", "coordinates": [ -122.46639, 37.51502 ] } },
{ "type": "Feature", "properties": { "place": "Moss Beach", "LSAD": "57", "label_rank": 3 }, "geometry": { "type": "Point", "coordinates": [ -122.50704, 37.51735 ] } },
{ "type": "Feature", "properties": { "place": "Black Point-Green Point", "LSAD": "57", "label_rank": 3 }, "geometry": { "type": "Point", "coordinates": [ -122.5185, 38.11421 ] } },
{ "type": "Feature", "properties": { "place": "Nicasio", "LSAD": "57", "label_rank": 3 }, "geometry": { "type": "Point", "coordinates": [ -122.69808, 38.0608 ] } },
{ "type": "Feature", "properties": { "place": "Point Reyes Station", "LSAD": "57", "label_rank": 3 }, "geometry": { "type": "Point", "coordinates": [ -122.81435, 38.08788 ] } },
{ "type": "Feature", "properties": { "place": "Santa Venetia", "LSAD": "57", "label_rank": 3 }, "geometry": { "type": "Point", "coordinates": [ -122.49923, 38.00598 ] } },
{ "type": "Feature", "properties": { "place": "Stinson Beach", "LSAD": "57", "label_rank": 3 }, "geometry": { "type": "Point", "coordinates": [ -122.63786, 37.89532 ] } },
{ "type": "Feature", "properties": { "place": "Strawberry", "LSAD": "57", "label_rank": 3 }, "geometry": { "type": "Point", "coordinates": [ -122.5088, 37.89278 ] } },
{ "type": "Feature", "properties": { "place": "Tamalpais-Homestead Valley", "LSAD": "57", "label_rank": 3 }, "geometry": { "type": "Point", "coordinates": [ -122.53853, 37.87999 ] } },
{ "type": "Feature", "properties": { "place": "Sleepy Hollow", "LSAD": "57", "label_rank": 3 }, "geometry": { "type": "Point", "coordinates": [ -122.58723, 38.01045 ] } },
{ "type": "Feature", "properties": { "place": "El Sobrante", "LSAD": "57", "label_rank": 3 }, "geometry": { "type": "Point", "coordinates": [ -122.30583, 37.97456 ] } },
{ "type": "Feature", "properties": { "place": "Rodeo", "LSAD": "57", "label_rank": 3 }, "geometry": { "type": "Point", "coordinates": [ -122.25474, 38.03646 ] } },
{ "type": "Feature", "properties": { "place": "Knights Landing", "LSAD": "57", "label_rank": 3 }, "geometry": { "type": "Point", "coordinates": [ -121.71578, 38.79781 ] } },
{ "type": "Feature", "properties": { "place": "Moskowite Corner", "LSAD": "57", "label_rank": 3 }, "geometry": { "type": "Point", "coordinates": [ -122.19337, 38.44584 ] } },
{ "type": "Feature", "properties": { "place": "Bonny Doon", "LSAD": "57", "label_rank": 3 }, "geometry": { "type": "Point", "coordinates": [ -122.14342, 37.05006 ] } },
{ "type": "Feature", "properties": { "place": "Davenport", "LSAD": "57", "label_rank": 3 }, "geometry": { "type": "Point", "coordinates": [ -122.19095, 37.01483 ] } },
{ "type": "Feature", "properties": { "place": "La Selva Beach", "LSAD": "57", "label_rank": 3 }, "geometry": { "type": "Point", "coordinates": [ -121.84121, 36.92817 ] } },
{ "type": "Feature", "properties": { "place": "Zayante", "LSAD": "57", "label_rank": 3 }, "geometry": { "type": "Point", "coordinates": [ -122.04462, 37.08632 ] } },
{ "type": "Feature", "properties": { "place": "North Gate", "LSAD": "57", "label_rank": 3 }, "geometry": { "type": "Point", "coordinates": [ -121.99753, 37.90473 ] } },
{ "type": "Feature", "properties": { "place": "Bloomfield", "LSAD": "57", "label_rank": 3 }, "geometry": { "type": "Point", "coordinates": [ -122.84683, 38.31929 ] } },
{ "type": "Feature", "properties": { "place": "Fulton", "LSAD": "57", "label_rank": 3 }, "geometry": { "type": "Point", "coordinates": [ -122.77227, 38.49461 ] } },
{ "type": "Feature", "properties": { "place": "Valley Ford", "LSAD": "57", "label_rank": 3 }, "geometry": { "type": "Point", "coordinates": [ -122.91269, 38.32324 ] } },
{ "type": "Feature", "properties": { "place": "Saranap", "LSAD": "57", "label_rank": 3 }, "geometry": { "type": "Point", "coordinates": [ -122.07581, 37.88914 ] } },
{ "type": "Feature", "properties": { "place": "Norris Canyon", "LSAD": "57", "label_rank": 3 }, "geometry": { "type": "Point", "coordinates": [ -121.9959, 37.75067 ] } },
{ "type": "Feature", "properties": { "place": "Herald", "LSAD": "57", "label_rank": 3 }, "geometry": { "type": "Point", "coordinates": [ -121.23619, 38.29471 ] } },
{ "type": "Feature", "properties": { "place": "Hood", "LSAD": "57", "label_rank": 3 }, "geometry": { "type": "Point", "coordinates": [ -121.51537, 38.36909 ] } },
{ "type": "Feature", "properties": { "place": "Mather", "LSAD": "57", "label_rank": 3 }, "geometry": { "type": "Point", "coordinates": [ -121.28905, 38.54813 ] } },
{ "type": "Feature", "properties": { "place": "Yolo", "LSAD": "57", "label_rank": 3 }, "geometry": { "type": "Point", "coordinates": [ -121.80783, 38.73868 ] } },
{ "type": "Feature", "properties": { "place": "Penryn", "LSAD": "57", "label_rank": 3 }, "geometry": { "type": "Point", "coordinates": [ -121.16957, 38.84957 ] } },
{ "type": "Feature", "properties": { "place": "Boyes Hot Springs", "LSAD": "57", "label_rank": 3 }, "geometry": { "type": "Point", "coordinates": [ -122.48756, 38.31163 ] } },
{ "type": "Feature", "properties": { "place": "Rosemont", "LSAD": "57", "label_rank": 3 }, "geometry": { "type": "Point", "coordinates": [ -121.35691, 38.54746 ] } },
{ "type": "Feature", "properties": { "place": "Kentfield", "LSAD": "57", "label_rank": 3 }, "geometry": { "type": "Point", "coordinates": [ -122.56009, 37.94573 ] } },
{ "type": "Feature", "properties": { "place": "Guerneville", "LSAD": "57", "label_rank": 3 }, "geometry": { "type": "Point", "coordinates": [ -122.97807, 38.5185 ] } },
{ "type": "Feature", "properties": { "place": "University of California-Davis", "LSAD": "57", "label_rank": 3 }, "geometry": { "type": "Point", "coordinates": [ -121.75535, 38.53486 ] } },
{ "type": "Feature", "properties": { "place": "Rio del Mar", "LSAD": "57", "label_rank": 3 }, "geometry": { "type": "Point", "coordinates": [ -121.87465, 36.95394 ] } },
{ "type": "Feature", "properties": { "place": "North Highlands", "LSAD": "57", "label_rank": 3 }, "geometry": { "type": "Point", "coordinates": [ -121.37697, 38.67224 ] } },
{ "type": "Feature", "properties": { "place": "Cambrian Park", "LSAD": "57", "label_rank": 3 }, "geometry": { "type": "Point", "coordinates": [ -121.93136, 37.25703 ] } },
{ "type": "Feature", "properties": { "place": "Discovery Bay", "LSAD": "57", "label_rank": 3 }, "geometry": { "type": "Point", "coordinates": [ -121.59321, 37.91077 ] } },
{ "type": "Feature", "properties": { "place": "Country Club", "LSAD": "57", "label_rank": 3 }, "geometry": { "type": "Point", "coordinates": [ -121.33354, 37.96834 ] } },
{ "type": "Feature", "properties": { "place": "Kennedy", "LSAD": "57", "label_rank": 3 }, "geometry": { "type": "Point", "coordinates": [ -121.24524, 37.92944 ] } },
{ "type": "Feature", "properties": { "place": "Fairview", "LSAD": "57", "label_rank": 3 }, "geometry": { "type": "Point", "coordinates": [ -122.04752, 37.67618 ] } },
{ "type": "Feature", "properties": { "place": "Lemon Hill", "LSAD": "57", "label_rank": 3 }, "geometry": { "type": "Point", "coordinates": [ -121.45369, 38.51766 ] } },
{ "type": "Feature", "properties": { "place": "Sunol", "LSAD": "57", "label_rank": 3 }, "geometry": { "type": "Point", "coordinates": [ -121.89336, 37.58484 ] } },
{ "type": "Feature", "properties": { "place": "Amesti", "LSAD": "57", "label_rank": 3 }, "geometry": { "type": "Point", "coordinates": [ -121.78388, 36.95564 ] } },
{ "type": "Feature", "properties": { "place": "Felton", "LSAD": "57", "label_rank": 3 }, "geometry": { "type": "Point", "coordinates": [ -122.07633, 37.04174 ] } },
{ "type": "Feature", "properties": { "place": "West Menlo Park", "LSAD": "57", "label_rank": 3 }, "geometry": { "type": "Point", "coordinates": [ -122.20663, 37.43327 ] } },
{ "type": "Feature", "properties": { "place": "Inverness", "LSAD": "57", "label_rank": 3 }, "geometry": { "type": "Point", "coordinates": [ -122.845, 38.0804 ] } },
{ "type": "Feature", "properties": { "place": "Vineyard", "LSAD": "57", "label_rank": 3 }, "geometry": { "type": "Point", "coordinates": [ -121.32542, 38.4772 ] } },
{ "type": "Feature", "properties": { "place": "Orangevale", "LSAD": "57", "label_rank": 3 }, "geometry": { "type": "Point", "coordinates": [ -121.22989, 38.68358 ] } },
{ "type": "Feature", "properties": { "place": "Gold River", "LSAD": "57", "label_rank": 3 }, "geometry": { "type": "Point", "coordinates": [ -121.24813, 38.62466 ] } },
{ "type": "Feature", "properties": { "place": "Oakville", "LSAD": "57", "label_rank": 3 }, "geometry": { "type": "Point", "coordinates": [ -122.40704, 38.43842 ] } },
{ "type": "Feature", "properties": { "place": "Lexington Hills", "LSAD": "57", "label_rank": 3 }, "geometry": { "type": "Point", "coordinates": [ -121.98562, 37.16287 ] } },
{ "type": "Feature", "properties": { "place": "Pasatiempo", "LSAD": "57", "label_rank": 3 }, "geometry": { "type": "Point", "coordinates": [ -122.02697, 37.0044 ] } },
{ "type": "Feature", "properties": { "place": "Diablo", "LSAD": "57", "label_rank": 3 }, "geometry": { "type": "Point", "coordinates": [ -121.95752, 37.84242 ] } },
{ "type": "Feature", "properties": { "place": "Forestville", "LSAD": "57", "label_rank": 3 }, "geometry": { "type": "Point", "coordinates": [ -122.88566, 38.48425 ] } },
{ "type": "Feature", "properties": { "place": "Aptos", "LSAD": "57", "label_rank": 3 }, "geometry": { "type": "Point", "coordinates": [ -121.89018, 36.99508 ] } },
{ "type": "Feature", "properties": { "place": "San Miguel", "LSAD": "57", "label_rank": 3 }, "geometry": { "type": "Point", "coordinates": [ -122.04401, 37.88761 ] } },
{ "type": "Feature", "properties": { "place": "Kensington", "LSAD": "57", "label_rank": 3 }, "geometry": { "type": "Point", "coordinates": [ -122.27817, 37.90828 ] } },
{ "type": "Feature", "properties": { "place": "Aptos Hills-Larkin Valley", "LSAD": "57", "label_rank": 3 }, "geometry": { "type": "Point", "coordinates": [ -121.83072, 36.95757 ] } },
{ "type": "Feature", "properties": { "place": "El Dorado Hills", "LSAD": "57", "label_rank": 3 }, "geometry": { "type": "Point", "coordinates": [ -121.05354, 38.68291 ] } },
{ "type": "Feature", "properties": { "place": "Port Costa", "LSAD": "57", "label_rank": 3 }, "geometry": { "type": "Point", "coordinates": [ -122.18505, 38.04505 ] } },
{ "type": "Feature", "properties": { "place": "Glen Ellen", "LSAD": "57", "label_rank": 3 }, "geometry": { "type": "Point", "coordinates": [ -122.53879, 38.35537 ] } },
{ "type": "Feature", "properties": { "place": "Temelec", "LSAD": "57", "label_rank": 3 }, "geometry": { "type": "Point", "coordinates": [ -122.49864, 38.25799 ] } },
{ "type": "Feature", "properties": { "place": "Parkway", "LSAD": "57", "label_rank": 3 }, "geometry": { "type": "Point", "coordinates": [ -121.45161, 38.49621 ] } },
{ "type": "Feature", "properties": { "place": "Contra Costa Centre", "LSAD": "57", "label_rank": 3 }, "geometry": { "type": "Point", "coordinates": [ -122.05444, 37.92673 ] } },
{ "type": "Feature", "properties": { "place": "Rocklin", "LSAD": "25", "label_rank": 3 }, "geometry": { "type": "Point", "coordinates": [ -121.26433, 38.81119 ] } },
{ "type": "Feature", "properties": { "place": "Albany", "LSAD": "25", "label_rank": 3 }, "geometry": { "type": "Point", "coordinates": [ -122.30449, 37.88995 ] } },
{ "type": "Feature", "properties": { "place": "Piedmont", "LSAD": "25", "label_rank": 3 }, "geometry": { "type": "Point", "coordinates": [ -122.23322, 37.82318 ] } },
{ "type": "Feature", "properties": { "place": "Union City", "LSAD": "25", "label_rank": 3 }, "geometry": { "type": "Point", "coordinates": [ -122.04011, 37.59924 ] } },
{ "type": "Feature", "properties": { "place": "El Cerrito", "LSAD": "25", "label_rank": 3 }, "geometry": { "type": "Point", "coordinates": [ -122.29903, 37.91802 ] } },
{ "type": "Feature", "properties": { "place": "Pittsburg", "LSAD": "25", "label_rank": 2 }, "geometry": { "type": "Point", "coordinates": [ -121.88502, 38.01945 ] } },
{ "type": "Feature", "properties": { "place": "Hillsborough", "LSAD": "43", "label_rank": 3 }, "geometry": { "type": "Point", "coordinates": [ -122.35794, 37.55424 ] } },
{ "type": "Feature", "properties": { "place": "Scotts Valley", "LSAD": "25", "label_rank": 3 }, "geometry": { "type": "Point", "coordinates": [ -122.01026, 37.05512 ] } },
{ "type": "Feature", "properties": { "place": "Vallejo", "LSAD": "25", "label_rank": 2 }, "geometry": { "type": "Point", "coordinates": [ -122.22947, 38.11406 ] } },
{ "type": "Feature", "properties": { "place": "Elk Grove", "LSAD": "25", "label_rank": 3 }, "geometry": { "type": "Point", "coordinates": [ -121.40422, 38.41093 ] } },
{ "type": "Feature", "properties": { "place": "Montara", "LSAD": "57", "label_rank": 3 }, "geometry": { "type": "Point", "coordinates": [ -122.49339, 37.5495 ] } },
{ "type": "Feature", "properties": { "place": "Monte Rio", "LSAD": "57", "label_rank": 3 }, "geometry": { "type": "Point", "coordinates": [ -123.01444, 38.46738 ] } },
{ "type": "Feature", "properties": { "place": "Daly City", "LSAD": "25", "label_rank": 2 }, "geometry": { "type": "Point", "coordinates": [ -122.48351, 37.68033 ] } },
{ "type": "Feature", "properties": { "place": "Tracy", "LSAD": "25", "label_rank": 2 }, "geometry": { "type": "Point", "coordinates": [ -121.43452, 37.71991 ] } },
{ "type": "Feature", "properties": { "place": "Crockett", "LSAD": "57", "label_rank": 3 }, "geometry": { "type": "Point", "coordinates": [ -122.2202, 38.05083 ] } },
{ "type": "Feature", "properties": { "place": "Colma", "LSAD": "43", "label_rank": 3 }, "geometry": { "type": "Point", "coordinates": [ -122.4555, 37.67664 ] } },
{ "type": "Feature", "properties": { "place": "Millbrae", "LSAD": "25", "label_rank": 3 }, "geometry": { "type": "Point", "coordinates": [ -122.40284, 37.59871 ] } },
{ "type": "Feature", "properties": { "place": "Watsonville", "LSAD": "25", "label_rank": 2 }, "geometry": { "type": "Point", "coordinates": [ -121.76497, 36.91809 ] } },
{ "type": "Feature", "properties": { "place": "Folsom", "LSAD": "25", "label_rank": 3 }, "geometry": { "type": "Point", "coordinates": [ -121.14136, 38.66481 ] } },
{ "type": "Feature", "properties": { "place": "El Verano", "LSAD": "57", "label_rank": 3 }, "geometry": { "type": "Point", "coordinates": [ -122.49176, 38.29733 ] } },
{ "type": "Feature", "properties": { "place": "Camino Tassajara", "LSAD": "57", "label_rank": 3 }, "geometry": { "type": "Point", "coordinates": [ -121.88559, 37.79204 ] } },
{ "type": "Feature", "properties": { "place": "Allendale", "LSAD": "57", "label_rank": 3 }, "geometry": { "type": "Point", "coordinates": [ -121.97895, 38.44219 ] } },
{ "type": "Feature", "properties": { "place": "Alto", "LSAD": "57", "label_rank": 3 }, "geometry": { "type": "Point", "coordinates": [ -122.51731, 37.90441 ] } },
{ "type": "Feature", "properties": { "place": "Marin City", "LSAD": "57", "label_rank": 3 }, "geometry": { "type": "Point", "coordinates": [ -122.51364, 37.87095 ] } },
{ "type": "Feature", "properties": { "place": "Pescadero", "LSAD": "57", "label_rank": 3 }, "geometry": { "type": "Point", "coordinates": [ -122.37437, 37.25 ] } },
{ "type": "Feature", "properties": { "place": "Cupertino", "LSAD": "25", "label_rank": 2 }, "geometry": { "type": "Point", "coordinates": [ -122.06048, 37.30919 ] } },
{ "type": "Feature", "properties": { "place": "Concord", "LSAD": "25", "label_rank": 2 }, "geometry": { "type": "Point", "coordinates": [ -122.01554, 37.97345 ] } },
{ "type": "Feature", "properties": { "place": "Brisbane", "LSAD": "25", "label_rank": 3 }, "geometry": { "type": "Point", "coordinates": [ -122.40638, 37.69036 ] } },
{ "type": "Feature", "properties": { "place": "Milpitas", "LSAD": "25", "label_rank": 2 }, "geometry": { "type": "Point", "coordinates": [ -121.88478, 37.43194 ] } },
{ "type": "Feature", "properties": { "place": "Kenwood", "LSAD": "57", "label_rank": 3 }, "geometry": { "type": "Point", "coordinates": [ -122.53469, 38.41356 ] } },
{ "type": "Feature", "properties": { "place": "San Anselmo", "LSAD": "43", "label_rank": 3 }, "geometry": { "type": "Point", "coordinates": [ -122.57046, 37.98293 ] } },
{ "type": "Feature", "properties": { "place": "Elmira", "LSAD": "57", "label_rank": 3 }, "geometry": { "type": "Point", "coordinates": [ -121.9108, 38.35335 ] } },
{ "type": "Feature", "properties": { "place": "Benicia", "LSAD": "25", "label_rank": 2 }, "geometry": { "type": "Point", "coordinates": [ -122.15747, 38.07315 ] } },
{ "type": "Feature", "properties": { "place": "Atherton", "LSAD": "43", "label_rank": 3 }, "geometry": { "type": "Point", "coordinates": [ -122.20698, 37.44921 ] } },
{ "type": "Feature", "properties": { "place": "La Honda", "LSAD": "57", "label_rank": 3 }, "geometry": { "type": "Point", "coordinates": [ -122.26391, 37.31955 ] } },
{ "type": "Feature", "properties": { "place": "Muir Beach", "LSAD": "57", "label_rank": 3 }, "geometry": { "type": "Point", "coordinates": [ -122.58906, 37.86564 ] } },
{ "type": "Feature", "properties": { "place": "Roseville", "LSAD": "25", "label_rank": 3 }, "geometry": { "type": "Point", "coordinates": [ -121.31012, 38.77043 ] } },
{ "type": "Feature", "properties": { "place": "Fetters Hot Springs-Agua Caliente", "LSAD": "57", "label_rank": 3 }, "geometry": { "type": "Point", "coordinates": [ -122.48713, 38.32694 ] } },
{ "type": "Feature", "properties": { "place": "Interlaken", "LSAD": "57", "label_rank": 3 }, "geometry": { "type": "Point", "coordinates": [ -121.74453, 36.95354 ] } },
{ "type": "Feature", "properties": { "place": "Pleasant Hill", "LSAD": "25", "label_rank": 3 }, "geometry": { "type": "Point", "coordinates": [ -122.07763, 37.95402 ] } },
{ "type": "Feature", "properties": { "place": "Walnut Grove", "LSAD": "57", "label_rank": 3 }, "geometry": { "type": "Point", "coordinates": [ -121.52907, 38.24709 ] } },
{ "type": "Feature", "properties": { "place": "San Pablo", "LSAD": "25", "label_rank": 3 }, "geometry": { "type": "Point", "coordinates": [ -122.34686, 37.96582 ] } },
{ "type": "Feature", "properties": { "place": "Hollister", "LSAD": "25", "label_rank": 3 }, "geometry": { "type": "Point", "coordinates": [ -121.39819, 36.86205 ] } },
{ "type": "Feature", "properties": { "place": "McClellan Park", "LSAD": "57", "label_rank": 3 }, "geometry": { "type": "Point", "coordinates": [ -121.39909, 38.6643 ] } },
{ "type": "Feature", "properties": { "place": "Franklin", "LSAD": "57", "label_rank": 3 }, "geometry": { "type": "Point", "coordinates": [ -121.46272, 38.37381 ] } },
{ "type": "Feature", "properties": { "place": "Hartley", "LSAD": "57", "label_rank": 3 }, "geometry": { "type": "Point", "coordinates": [ -121.94627, 38.41847 ] } },
{ "type": "Feature", "properties": { "place": "Woodside", "LSAD": "43", "label_rank": 3 }, "geometry": { "type": "Point", "coordinates": [ -122.25713, 37.41679 ] } },
{ "type": "Feature", "properties": { "place": "Reliez Valley", "LSAD": "57", "label_rank": 3 }, "geometry": { "type": "Point", "coordinates": [ -122.11005, 37.93888 ] } },
{ "type": "Feature", "properties": { "place": "North Richmond", "LSAD": "57", "label_rank": 3 }, "geometry": { "type": "Point", "coordinates": [ -122.36763, 37.96387 ] } },
{ "type": "Feature", "properties": { "place": "French Camp", "LSAD": "57", "label_rank": 3 }, "geometry": { "type": "Point", "coordinates": [ -121.27175, 37.87526 ] } },
{ "type": "Feature", "properties": { "place": "Rancho Cordova", "LSAD": "25", "label_rank": 3 }, "geometry": { "type": "Point", "coordinates": [ -121.22906, 38.56804 ] } },
{ "type": "Feature", "properties": { "place": "Dillon Beach", "LSAD": "57", "label_rank": 3 }, "geometry": { "type": "Point", "coordinates": [ -122.95519, 38.24694 ] } },
{ "type": "Feature", "properties": { "place": "Cherryland", "LSAD": "57", "label_rank": 3 }, "geometry": { "type": "Point", "coordinates": [ -122.10515, 37.6777 ] } },
{ "type": "Feature", "properties": { "place": "Rancho Murieta", "LSAD": "57", "label_rank": 3 }, "geometry": { "type": "Point", "coordinates": [ -121.06543, 38.51242 ] } },
{ "type": "Feature", "properties": { "place": "Loma Mar", "LSAD": "57", "label_rank": 3 }, "geometry": { "type": "Point", "coordinates": [ -122.30218, 37.26669 ] } },
{ "type": "Feature", "properties": { "place": "Penngrove", "LSAD": "57", "label_rank": 3 }, "geometry": { "type": "Point", "coordinates": [ -122.67575, 38.29763 ] } },
{ "type": "Feature", "properties": { "place": "Acampo", "LSAD": "57", "label_rank": 3 }, "geometry": { "type": "Point", "coordinates": [ -121.27975, 38.17247 ] } },
{ "type": "Feature", "properties": { "place": "Lucas Valley-Marinwood", "LSAD": "57", "label_rank": 3 }, "geometry": { "type": "Point", "coordinates": [ -122.57237, 38.04119 ] } },
{ "type": "Feature", "properties": { "place": "Soquel", "LSAD": "57", "label_rank": 3 }, "geometry": { "type": "Point", "coordinates": [ -121.94784, 36.99908 ] } },
{ "type": "Feature", "properties": { "place": "Ladera", "LSAD": "57", "label_rank": 3 }, "geometry": { "type": "Point", "coordinates": [ -122.199, 37.4 ] } },
{ "type": "Feature", "properties": { "place": "Seacliff", "LSAD": "57", "label_rank": 3 }, "geometry": { "type": "Point", "coordinates": [ -121.91735, 36.9768 ] } },
{ "type": "Feature", "properties": { "place": "Alhambra Valley", "LSAD": "57", "label_rank": 3 }, "geometry": { "type": "Point", "coordinates": [ -122.12758, 37.96833 ] } },
{ "type": "Feature", "properties": { "place": "Danville", "LSAD": "43", "label_rank": 2 }, "geometry": { "type": "Point", "coordinates": [ -121.97417, 37.81361 ] } },
{ "type": "Feature", "properties": { "place": "Oakley", "LSAD": "25", "label_rank": 3 }, "geometry": { "type": "Point", "coordinates": [ -121.69027, 37.99434 ] } },
{ "type": "Feature", "properties": { "place": "Wilton", "LSAD": "57", "label_rank": 3 }, "geometry": { "type": "Point", "coordinates": [ -121.20684, 38.41883 ] } }
]
}
