{
"type": "FeatureCollection",
"name": "stations",
"crs": { "type": "name", "properties": { "name": "urn:ogc:def:crs:OGC:1.3:CRS84" } },
"xy_coordinate_resolution": 1e-05,
"features": [
{ "type": "Feature", "properties": { "name": "San Antonio", "system": "Caltrain" }, "geometry": { "type": "Point", "coordinates": [ -122.10724, 37.40741 ] } },
{ "type": "Feature", "properties": { "name": "Mountain View", "system": "Caltrain" }, "geometry": { "type": "Point", "coordinates": [ -122.07588, 37.39434 ] } },
{ "type": "Feature", "properties": { "name": "Rockridge", "system": "BART" }, "geometry": { "type": "Point", "coordinates": [ -122.25126, 37.84476 ] } },
{ "type": "Feature", "properties": { "name": "Concord", "system": "BART" }, "geometry": { "type": "Point", "coordinates": [ -122.02907, 37.97378 ] } },
{ "type": "Feature", "properties": { "name": "Ashby", "system": "BART" }, "geometry": { "type": "Point", "coordinates": [ -122.26971, 37.85298 ] } },
{ "type": "Feature", "properties": { "name": "Orinda", "system": "BART" }, "geometry": { "type": "Point", "coordinates": [ -122.18368, 37.87849 ] } },
{ "type": "Feature", "properties": { "name": "Lafayette", "system": "BART" }, "geometry": { "type": "Point", "coordinates": [ -122.12464, 37.89319 ] } },
{ "type": "Feature", "properties": { "name": "Capitol", "system": "Caltrain" }, "geometry": { "type": "Point", "coordinates": [ -121.84176, 37.28397 ] } },
{ "type": "Feature", "properties": { "name": "Morgan Hill", "system": "Caltrain" }, "geometry": { "type": "Point", "coordinates": [ -121.65053, 37.1297 ] } },
{ "type": "Feature", "properties": { "name": "Gilroy", "system": "Caltrain" }, "geometry": { "type": "Point", "coordinates": [ -121.56675, 37.00449 ] } },
{ "type": "Feature", "properties": { "name": "Hillsdale", "system": "Caltrain" }, "geometry": { "type": "Point", "coordinates": [ -122.301, 37.54169 ] } },
{ "type": "Feature", "properties": { "name": "Sunnyvale", "system": "Caltrain" }, "geometry": { "type": "Point", "coordinates": [ -122.03078, 37.37842 ] } },
{ "type": "Feature", "properties": { "name": "Civic Center", "system": "BART" }, "geometry": { "type": "Point", "coordinates": [ -122.41396, 37.77936 ] } },
{ "type": "Feature", "properties": { "name": "Embarcadero", "system": "BART" }, "geometry": { "type": "Point", "coordinates": [ -122.3969, 37.79286 ] } },
{ "type": "Feature", "properties": { "name": "Lake Merritt", "system": "BART" }, "geometry": { "type": "Point", "coordinates": [ -122.26504, 37.79722 ] } },
{ "type": "Feature", "properties": { "name": "Millbrae", "system": "Caltrain" }, "geometry": { "type": "Point", "coordinates": [ -122.38701, 37.60011 ] } },
{ "type": "Feature", "properties": { "name": "Oakland City Center - 12th Street", "system": "BART" }, "geometry": { "type": "Point", "coordinates": [ -122.27169, 37.8035 ] } },
{ "type": "Feature", "properties": { "name": "Powell Street", "system": "BART" }, "geometry": { "type": "Point", "coordinates": [ -122.40719, 37.78471 ] } },
{ "type": "Feature", "properties": { "name": "16th Street Mission", "system": "BART" }, "geometry": { "type": "Point", "coordinates": [ -122.41968, 37.76507 ] } },
{ "type": "Feature", "properties": { "name": "19th Street Oakland", "system": "BART" }, "geometry": { "type": "Point", "coordinates": [ -122.269, 37.80766 ] } },
{ "type": "Feature", "properties": { "name": "24th Street Mission", "system": "BART" }, "geometry": { "type": "Point", "coordinates": [ -122.41845, 37.75226 ] } },
{ "type": "Feature", "properties": { "name": "Bayshore", "system": "Caltrain" }, "geometry": { "type": "Point", "coordinates": [ -122.40182, 37.70768 ] } },
{ "type": "Feature", "properties": { "name": "Belmont", "system": "Caltrain" }, "geometry": { "type": "Point", "coordinates": [ -122.27632, 37.52126 ] } },
{ "type": "Feature", "properties": { "name": "Burlingame", "system": "Caltrain" }, "geometry": { "type": "Point", "coordinates": [ -122.3451, 37.57997 ] } },
{ "type": "Feature", "properties": { "name": "California Avenue", "system": "Caltrain" }, "geometry": { "type": "Point", "coordinates": [ -122.1419, 37.42917 ] } },
{ "type": "Feature", "properties": { "name": "Hayward Park", "system": "Caltrain" }, "geometry": { "type": "Point", "coordinates": [ -122.30954, 37.55313 ] } },
{ "type": "Feature", "properties": { "name": "Lawrence", "system": "Caltrain" }, "geometry": { "type": "Point", "coordinates": [ -121.99708, 37.37058 ] } },
{ "type": "Feature", "properties": { "name": "Menlo Park", "system": "Caltrain" }, "geometry": { "type": "Point", "coordinates": [ -122.18257, 37.4548 ] } },
{ "type": "Feature", "properties": { "name": "Palo Alto", "system": "Caltrain" }, "geometry": { "type": "Point", "coordinates": [ -122.1652, 37.44347 ] } },
{ "type": "Feature", "properties": { "name": "San Carlos", "system": "Caltrain" }, "geometry": { "type": "Point", "coordinates": [ -122.25997, 37.50757 ] } },
{ "type": "Feature", "properties": { "name": "San Mateo", "system": "Caltrain" }, "geometry": { "type": "Point", "coordinates": [ -122.32412, 37.56811 ] } },
{ "type": "Feature", "properties": { "name": "Santa Clara", "system": "Caltrain" }, "geometry": { "type": "Point", "coordinates": [ -121.93623, 37.3531 ] } },
{ "type": "Feature", "properties": { "name": "Tamien", "system": "Caltrain" }, "geometry": { "type": "Point", "coordinates": [ -121.88474, 37.31268 ] } },
{ "type": "Feature", "properties": { "name": "22nd Street", "system": "Caltrain" }, "geometry": { "type": "Point", "coordinates": [ -122.3924, 37.75729 ] } },
{ "type": "Feature", "properties": { "name": "Lathrop/Manteca", "system": "ACE" }, "geometry": { "type": "Point", "coordinates": [ -121.26347, 37.79832 ] } },
{ "type": "Feature", "properties": { "name": "Stockton–Downtown", "system": "ACE" }, "geometry": { "type": "Point", "coordinates": [ -121.2789, 37.95706 ] } },
{ "type": "Feature", "properties": { "name": "Pleasanton", "system": "ACE" }, "geometry": { "type": "Point", "coordinates": [ -121.88237, 37.65838 ] } },
{ "type": "Feature", "properties": { "name": "San Bruno", "system": "Caltrain" }, "geometry": { "type": "Point", "coordinates": [ -122.4115, 37.63022 ] } },
{ "type": "Feature", "properties": { "name": "San Jose Diridon", "system": "Caltrain" }, "geometry": { "type": "Point", "coordinates": [ -121.9025, 37.32992 ] } },
{ "type": "Feature", "properties": { "name": "Cotati", "system": "SMART" }, "geometry": { "type": "Point", "coordinates": [ -122.69156, 38.3316 ] } },
{ "type": "Feature", "properties": { "name": "Marin Civic Center", "system": "SMART" }, "geometry": { "type": "Point", "coordinates": [ -122.53777, 38.00126 ] } },
{ "type": "Feature", "properties": { "name": "Novato Hamilton", "system": "SMART" }, "geometry": { "type": "Point", "coordinates": [ -122.52398, 38.0565 ] } },
{ "type": "Feature", "properties": { "name": "Novato San Marin", "system": "SMART" }, "geometry": { "type": "Point", "coordinates": [ -122.56612, 38.12073 ] } },
{ "type": "Feature", "properties": { "name": "Petaluma Downtown", "system": "SMART" }, "geometry": { "type": "Point", "coordinates": [ -122.63487, 38.23727 ] } },
{ "type": "Feature", "properties": { "name": "Santa Rosa Downtown", "system": "SMART" }, "geometry": { "type": "Point", "coordinates": [ -122.72178, 38.43761 ] } },
{ "type": "Feature", "properties": { "name": "Santa Rosa North", "system": "SMART" }, "geometry": { "type": "Point", "coordinates": [ -122.73644, 38.45521 ] } },
{ "type": "Feature", "properties": { "name": "Montgomery Street", "system": "BART" }, "geometry": { "type": "Point", "coordinates": [ -122.40147, 37.78923 ] } },
{ "type": "Feature", "properties": { "name": "Millbrae", "system": "BART" }, "geometry": { "type": "Point", "coordinates": [ -122.38678, 37.60024 ] } },
{ "type": "Feature", "properties": { "name": "Pittsburg/Bay Point Transfer", "system": "BART" }, "geometry": { "type": "Point", "coordinates": [ -121.9328, 38.01894 ] } },
{ "type": "Feature", "properties": { "name": "West Oakland", "system": "BART" }, "geometry": { "type": "Point", "coordinates": [ -122.29518, 37.80489 ] } },
{ "type": "Feature", "properties": { "name": "Santa Clara-Great America", "system": "ACE" }, "geometry": { "type": "Point", "coordinates": [ -121.96687, 37.40662 ] } },
{ "type": "Feature", "properties": { "name": "Fremont", "system": "ACE" }, "geometry": { "type": "Point", "coordinates": [ -122.00735, 37.55916 ] } },
{ "type": "Feature", "properties": { "name": "Richmond", "system": "BART" }, "geometry": { "type": "Point", "coordinates": [ -122.35316, 37.93687 ] } },
{ "type": "Feature", "properties": { "name": "Novato Downtown", "system": "SMART" }, "geometry": { "type": "Point", "coordinates": [ -122.56447, 38.10599 ] } },
{ "type": "Feature", "properties": { "name": "Sonoma County Airport", "system": "SMART" }, "geometry": { "type": "Point", "coordinates": [ -122.78423, 38.51001 ] } },
{ "type": "Feature", "properties": { "name": "Rohnert Park", "system": "SMART" }, "geometry": { "type": "Point", "coordinates": [ -122.70107, 38.34716 ] } },
{ "type": "Feature", "properties": { "name": "Redwood City", "system": "Caltrain" }, "geometry": { "type": "Point", "coordinates": [ -122.23172, 37.48583 ] } },
{ "type": "Feature", "properties": { "name": "South San Francisco", "system": "Caltrain" }, "geometry": { "type": "Point", "coordinates": [ -122.40608, 37.65486 ] } },
{ "type": "Feature", "properties": { "name": "San Martin", "system": "Caltrain" }, "geometry": { "type": "Point", "coordinates": [ -121.61044, 37.0858 ] } },
{ "type": "Feature", "properties": { "name": "Livermore", "system": "ACE" }, "geometry": { "type": "Point", "coordinates": [ -121.76708, 37.68498 ] } },
{ "type": "Feature", "properties": { "name": "Vasco Road", "system": "ACE" }, "geometry": { "type": "Point", "coordinates": [ -121.71774, 37.69705 ] } },
{ "type": "Feature", "properties": { "name": "Tracy", "system": "ACE" }, "geometry": { "type": "Point", "coordinates": [ -121.43321, 37.69625 ] } },
{ "type": "Feature", "properties": { "name": "El Cerrito del Norte", "system": "BART" }, "geometry": { "type": "Point", "coordinates": [ -122.31691, 37.92518 ] } },
{ "type": "Feature", "properties": { "name": "El Cerrito Plaza", "system": "BART" }, "geometry": { "type": "Point", "coordinates": [ -122.29894, 37.90262 ] } },
{ "type": "Feature", "properties": { "name": "North Berkeley", "system": "BART" }, "geometry": { "type": "Point", "coordinates": [ -122.28344, 37.87397 ] } },
{ "type": "Feature", "properties": { "name": "Downtown Berkeley", "system": "BART" }, "geometry": { "type": "Point", "coordinates": [ -122.26814, 37.8701 ] } },
{ "type": "Feature", "properties": { "name": "Pittsburg/Bay Point", "system": "BART" }, "geometry": { "type": "Point", "coordinates": [ -121.94515, 38.0183 ] } },
{ "type": "Feature", "properties": { "name": "North Concord/Martinez", "system": "BART" }, "geometry": { "type": "Point", "coordinates": [ -122.02435, 38.00299 ] } },
{ "type": "Feature", "properties": { "name": "Pleasant Hill/Contra Costa Centre", "system": "BART" }, "geometry": { "type": "Point", "coordinates": [ -122.05598, 37.92844 ] } },
{ "type": "Feature", "properties": { "name": "Walnut Creek", "system": "BART" }, "geometry": { "type": "Point", "coordinates": [ -122.06734, 37.9058 ] } },
{ "type": "Feature", "properties": { "name": "Warm Springs/South Fremont", "system": "BART" }, "geometry": { "type": "Point", "coordinates": [ -121.93921, 37.50199 ] } },
{ "type": "Feature", "properties": { "name": "Union City", "system": "BART" }, "geometry": { "type": "Point", "coordinates": [ -122.0174, 37.59063 ] } },
{ "type": "Feature", "properties": { "name": "South Hayward", "system": "BART" }, "geometry": { "type": "Point", "coordinates": [ -122.05695, 37.63447 ] } },
{ "type": "Feature", "properties": { "name": "Hayward", "system": "BART" }, "geometry": { "type": "Point", "coordinates": [ -122.08698, 37.66971 ] } },
{ "type": "Feature", "properties": { "name": "Castro Valley", "system": "BART" }, "geometry": { "type": "Point", "coordinates": [ -122.07592, 37.69121 ] } },
{ "type": "Feature", "properties": { "name": "West Dublin/Pleasanton", "system": "BART" }, "geometry": { "type": "Point", "coordinates": [ -121.92817, 37.69975 ] } },
{ "type": "Feature", "properties": { "name": "Dublin/Pleasanton", "system": "BART" }, "geometry": { "type": "Point", "coordinates": [ -121.89924, 37.70165 ] } },
{ "type": "Feature", "properties": { "name": "Bay Fair", "system": "BART" }, "geometry": { "type": "Point", "coordinates": [ -122.12647, 37.69691 ] } },
{ "type": "Feature", "properties": { "name": "San Leandro", "system": "BART" }, "geometry": { "type": "Point", "coordinates": [ -122.16058, 37.72156 ] } },
{ "type": "Feature", "properties": { "name": "Oakland International Airport", "system": "BART" }, "geometry": { "type": "Point", "coordinates": [ -122.2124, 37.71311 ] } },
{ "type": "Feature", "properties": { "name": "Coliseum", "system": "BART" }, "geometry": { "type": "Point", "coordinates": [ -122.19721, 37.75397 ] } },
{ "type": "Feature", "properties": { "name": "Fruitvale", "system": "BART" }, "geometry": { "type": "Point", "coordinates": [ -122.2241, 37.77485 ] } },
{ "type": "Feature", "properties": { "name": "Fremont", "system": "BART" }, "geometry": { "type": "Point", "coordinates": [ -121.97663, 37.55748 ] } },
{ "type": "Feature", "properties": { "name": "Glen Park", "system": "BART" }, "geometry": { "type": "Point", "coordinates": [ -122.43381, 37.7331 ] } },
{ "type": "Feature", "properties": { "name": "Balboa Park", "system": "BART" }, "geometry": { "type": "Point", "coordinates": [ -122.44755, 37.72143 ] } },
{ "type": "Feature", "properties": { "name": "Daly City", "system": "BART" }, "geometry": { "type": "Point", "coordinates": [ -122.46889, 37.70631 ] } },
{ "type": "Feature", "properties": { "name": "San Bruno", "system": "BART" }, "geometry": { "type": "Point", "coordinates": [ -122.4163, 37.63775 ] } },
{ "type": "Feature", "properties": { "name": "South San Francisco", "system": "BART" }, "geometry": { "type": "Point", "coordinates": [ -122.44398, 37.66423 ] } },
{ "type": "Feature", "properties": { "name": "Colma", "system": "BART" }, "geometry": { "type": "Point", "coordinates": [ -122.46621, 37.68463 ] } },
{ "type": "Feature", "properties": { "name": "San Francisco International Airport", "system": "BART" }, "geometry": { "type": "Point", "coordinates": [ -122.39152, 37.61622 ] } },
{ "type": "Feature", "properties": { "name": "Antioch", "system": "BART" }, "geometry": { "type": "Point", "coordinates": [ -121.78001, 37.99575 ] } },
{ "type": "Feature", "properties": { "name": "Pittsburg Center", "system": "BART" }, "geometry": { "type": "Point", "coordinates": [ -121.88916, 38.01687 ] } },
{ "type": "Feature", "properties": { "name": "Blossom Hill", "system": "Caltrain" }, "geometry": { "type": "Point", "coordinates": [ -121.79743, 37.25238 ] } },
{ "type": "Feature", "properties": { "name": "San Rafael Downtown", "system": "SMART" }, "geometry": { "type": "Point", "coordinates": [ -122.52274, 37.97196 ] } },
{ "type": "Feature", "properties": { "name": "Berryessa/North San José", "system": "BART" }, "geometry": { "type": "Point", "coordinates": [ -121.87468, 37.36844 ] } },
{ "type": "Feature", "properties": { "name": "Milpitas", "system": "BART" }, "geometry": { "type": "Point", "coordinates": [ -121.89097, 37.41004 ] } },
{ "type": "Feature", "properties": { "name": "Larkspur", "system": "SMART" }, "geometry": { "type": "Point", "coordinates": [ -122.5125, 37.9478 ] } },
{ "type": "Feature", "properties": { "name": "San Francisco 4th & King Street", "system": "Caltrain" }, "geometry": { "type": "Point", "coordinates": [ -122.39494, 37.77636 ] } },
{ "type": "Feature", "properties": { "name": "MacArthur", "system": "BART" }, "geometry": { "type": "Point", "coordinates": [ -122.26712, 37.82881 ] } },
{ "type": "Feature", "properties": { "name": "Windsor", "system": "SMART" }, "geometry": { "type": "Point", "coordinates": [ -122.81825, 38.54886 ] } }
]
}
