{
"type": "FeatureCollection",
"name": "transit",
"crs": { "type": "name", "properties": { "name": "urn:ogc:def:crs:OGC:1.3:CRS84" } },
"xy_coordinate_resolution": 1e-05,
"features": [
{ "type": "Feature", "properties": { "system": "ACE", "line": "ACE", "colour": "#9b68a0", "offset_idx": 0, "draw_order": 2 }, "geometry": { "type": "MultiLineString", "coordinates": [ [ [ -121.90277, 37.32915 ], [ -121.90355, 37.33334 ], [ -121.90998, 37.3404 ], [ -121.94188, 37.35633 ], [ -121.94538, 37.36296 ], [ -121.94558, 37.37219 ], [ -121.94667, 37.37617 ], [ -121.97337, 37.41628 ], [ -121.9768, 37.42038 ], [ -121.97755, 37.43463 ], [ -121.97628, 37.4397 ], [ -121.97338, 37.47751 ], [ -121.9746, 37.48144 ], [ -122.00837, 37.51356 ], [ -122.03206, 37.52483 ], [ -122.03319, 37.52647 ], [ -122.00654, 37.55973 ], [ -122.00476, 37.56064 ], [ -121.97075, 37.57018 ], [ -121.96985, 37.57299 ], [ -121.96325, 37.57898 ], [ -121.96266, 37.58521 ], [ -121.95577, 37.58947 ], [ -121.95167, 37.59053 ], [ -121.93394, 37.5914 ], [ -121.93222, 37.59249 ], [ -121.93033, 37.59514 ], [ -121.92407, 37.5981 ], [ -121.92095, 37.59711 ], [ -121.9171, 37.59388 ], [ -121.91335, 37.5926 ], [ -121.91107, 37.59274 ], [ -121.90344, 37.59512 ], [ -121.88953, 37.59313 ], [ -121.88704, 37.59415 ], [ -121.88181, 37.59872 ], [ -121.87682, 37.60049 ], [ -121.87583, 37.60232 ], [ -121.87518, 37.61061 ], [ -121.88048, 37.62136 ], [ -121.88104, 37.62643 ], [ -121.88613, 37.6339 ], [ -121.89219, 37.64523 ], [ -121.89141, 37.64732 ], [ -121.87646, 37.66533 ], [ -121.87454, 37.66631 ], [ -121.8584, 37.67088 ], [ -121.7904, 37.67836 ], [ -121.76545, 37.6857 ], [ -121.75313, 37.6877 ], [ -121.73526, 37.69468 ], [ -121.70121, 37.69935 ], [ -121.69852, 37.70117 ], [ -121.69375, 37.70794 ], [ -121.69541, 37.7129 ], [ -121.69598, 37.72071 ], [ -121.69676, 37.72308 ], [ -121.69622, 37.72463 ], [ -121.69346, 37.72566 ], [ -121.68851, 37.72338 ], [ -121.68414, 37.72378 ], [ -121.67963, 37.72282 ], [ -121.67742, 37.7234 ], [ -121.67627, 37.72482 ], [ -121.67524, 37.72927 ], [ -121.67218, 37.73347 ], [ -121.67216, 37.73809 ], [ -121.6713, 37.74001 ], [ -121.65769, 37.74698 ], [ -121.65574, 37.74661 ], [ -121.6525, 37.74424 ], [ -121.64763, 37.74245 ], [ -121.64225, 37.74301 ], [ -121.63845, 37.74065 ], [ -121.63372, 37.73999 ], [ -121.63199, 37.73827 ], [ -121.63007, 37.73245 ], [ -121.62761, 37.73082 ], [ -121.62223, 37.72953 ], [ -121.612, 37.73077 ], [ -121.60554, 37.72858 ], [ -121.5866, 37.71115 ], [ -121.56114, 37.70305 ], [ -121.55901, 37.70299 ], [ -121.55409, 37.7043 ], [ -121.54723, 37.70445 ], [ -121.54238, 37.70342 ], [ -121.53508, 37.70484 ], [ -121.52522, 37.7045 ], [ -121.51179, 37.70037 ], [ -121.50158, 37.70306 ], [ -121.49107, 37.6976 ], [ -121.48378, 37.69615 ], [ -121.4134, 37.69625 ], [ -121.41038, 37.69666 ], [ -121.40647, 37.69856 ], [ -121.32857, 37.75318 ], [ -121.30612, 37.77737 ], [ -121.27476, 37.78841 ], [ -121.27049, 37.7906 ], [ -121.26709, 37.7933 ], [ -121.26352, 37.79805 ], [ -121.26194, 37.80269 ], [ -121.26258, 37.82066 ], [ -121.26453, 37.82209 ], [ -121.2732, 37.82331 ], [ -121.2746, 37.82466 ], [ -121.27492, 37.82676 ] ], [ [ -121.27771, 37.95341 ], [ -121.27907, 37.95819 ] ], [ [ -121.27771, 37.95341 ], [ -121.27407, 37.9387 ], [ -121.27496, 37.82904 ], [ -121.27492, 37.82676 ] ], [ [ -121.27771, 37.95341 ], [ -121.27435, 37.94117 ], [ -121.27401, 37.93833 ], [ -121.27492, 37.82676 ] ] ] } },
{ "type": "Feature", "properties": { "system": "BART", "line": "Blue", "colour": "#00aeef", "offset_idx": -2, "draw_order": 5 }, "geometry": { "type": "MultiLineString", "coordinates": [ [ [ -122.27498, 37.79879 ], [ -122.27805, 37.79875 ], [ -122.28313, 37.80113 ], [ -122.28425, 37.80156 ], [ -122.29074, 37.80315 ], [ -122.29685, 37.80559 ], [ -122.29807, 37.80601 ], [ -122.30541, 37.80765 ], [ -122.30808, 37.80804 ], [ -122.32622, 37.80974 ], [ -122.33048, 37.8099 ], [ -122.33242, 37.80985 ], [ -122.33748, 37.80948 ], [ -122.34099, 37.809 ], [ -122.37129, 37.80381 ], [ -122.37362, 37.80334 ], [ -122.37581, 37.80276 ], [ -122.37789, 37.80199 ], [ -122.39452, 37.79464 ], [ -122.41842, 37.77592 ], [ -122.41994, 37.77412 ], [ -122.42035, 37.77271 ], [ -122.42032, 37.77134 ], [ -122.41817, 37.74847 ], [ -122.42372, 37.74001 ], [ -122.4378, 37.73056 ], [ -122.44278, 37.72833 ], [ -122.44399, 37.72761 ], [ -122.44506, 37.72675 ], [ -122.44617, 37.72547 ], [ -122.44691, 37.72405 ], [ -122.44875, 37.71633 ], [ -122.45373, 37.71165 ], [ -122.45697, 37.71024 ], [ -122.46416, 37.71014 ], [ -122.46545, 37.70985 ], [ -122.46663, 37.70907 ], [ -122.4696, 37.70547 ] ], [ [ -122.46819, 37.707 ], [ -122.46506, 37.70991 ], [ -122.45696, 37.7102 ], [ -122.45369, 37.71162 ], [ -122.4487, 37.71631 ], [ -122.44684, 37.72404 ], [ -122.44502, 37.72672 ], [ -122.44301, 37.72816 ], [ -122.43774, 37.7305 ], [ -122.43539, 37.73196 ], [ -122.42367, 37.73997 ], [ -122.41807, 37.74846 ], [ -122.42021, 37.77134 ], [ -122.41982, 37.77408 ], [ -122.41831, 37.77583 ], [ -122.39444, 37.79463 ], [ -122.37787, 37.80195 ], [ -122.3736, 37.80329 ], [ -122.34098, 37.80896 ], [ -122.33242, 37.8098 ], [ -122.32622, 37.8097 ], [ -122.30542, 37.80761 ], [ -122.29824, 37.80602 ], [ -122.29076, 37.80312 ], [ -122.28426, 37.80153 ], [ -122.27809, 37.79865 ], [ -122.27498, 37.79879 ] ], [ [ -122.27374, 37.80007 ], [ -122.27428, 37.79929 ], [ -122.27456, 37.79903 ], [ -122.27498, 37.79879 ] ], [ [ -122.27498, 37.79879 ], [ -122.27374, 37.80007 ] ], [ [ -122.27374, 37.80007 ], [ -122.2723, 37.80045 ], [ -122.26786, 37.79871 ], [ -122.26344, 37.79617 ], [ -122.25822, 37.79247 ], [ -122.25664, 37.79156 ], [ -122.24055, 37.78473 ], [ -122.23112, 37.77862 ], [ -122.22193, 37.77357 ], [ -122.21691, 37.77096 ], [ -122.21237, 37.76668 ], [ -122.16454, 37.72661 ], [ -122.16314, 37.72515 ], [ -122.15936, 37.71975 ], [ -122.15838, 37.71877 ], [ -122.13907, 37.70545 ], [ -122.11616, 37.68979 ], [ -122.11519, 37.68923 ], [ -122.114, 37.68877 ], [ -122.11261, 37.68856 ], [ -122.11069, 37.68857 ], [ -122.09208, 37.69054 ], [ -122.0709, 37.69079 ], [ -122.06744, 37.69132 ], [ -122.05867, 37.69361 ], [ -122.05226, 37.69337 ], [ -122.05109, 37.69342 ], [ -122.04994, 37.69356 ], [ -122.04868, 37.69384 ], [ -122.0476, 37.6942 ], [ -122.04658, 37.69465 ], [ -122.0455, 37.69526 ], [ -122.04436, 37.69611 ], [ -122.04061, 37.69955 ], [ -122.03891, 37.7007 ], [ -122.0337, 37.70212 ], [ -122.03132, 37.70202 ], [ -122.0268, 37.70098 ], [ -122.02548, 37.70083 ], [ -122.02415, 37.70081 ], [ -122.0215, 37.7012 ], [ -122.0159, 37.70282 ], [ -121.99973, 37.70342 ], [ -121.99505, 37.70255 ], [ -121.98924, 37.70024 ], [ -121.98767, 37.69978 ], [ -121.9728, 37.69748 ], [ -121.96822, 37.69718 ], [ -121.96431, 37.6974 ], [ -121.95755, 37.69838 ], [ -121.93481, 37.69832 ], [ -121.93281, 37.69863 ], [ -121.92086, 37.70134 ], [ -121.91771, 37.7018 ], [ -121.89804, 37.70158 ] ], [ [ -121.90044, 37.70172 ], [ -121.91772, 37.70186 ], [ -121.92088, 37.7014 ], [ -121.93482, 37.69841 ], [ -121.95756, 37.69846 ], [ -121.96822, 37.69726 ], [ -121.98764, 37.69988 ], [ -121.99501, 37.70265 ], [ -121.99972, 37.70351 ], [ -122.01575, 37.70292 ], [ -122.02415, 37.70088 ], [ -122.03131, 37.70208 ], [ -122.0337, 37.70217 ], [ -122.03881, 37.7008 ], [ -122.04065, 37.69958 ], [ -122.04553, 37.69529 ], [ -122.04995, 37.6936 ], [ -122.05869, 37.6937 ], [ -122.0709, 37.69089 ], [ -122.09208, 37.69058 ], [ -122.11013, 37.68866 ], [ -122.11397, 37.68881 ], [ -122.15834, 37.7188 ], [ -122.16311, 37.72517 ], [ -122.1645, 37.72663 ], [ -122.21688, 37.77098 ], [ -122.2311, 37.77865 ], [ -122.24052, 37.78476 ], [ -122.25715, 37.79187 ], [ -122.26422, 37.79677 ], [ -122.26784, 37.79875 ], [ -122.27229, 37.80049 ], [ -122.27374, 37.80007 ] ] ] } },
{ "type": "Feature", "properties": { "system": "BART", "line": "Green", "colour": "#4db848", "offset_idx": 2, "draw_order": 5 }, "geometry": { "type": "MultiLineString", "coordinates": [ [ [ -122.27498, 37.79879 ], [ -122.27805, 37.79875 ], [ -122.28313, 37.80113 ], [ -122.28425, 37.80156 ], [ -122.29074, 37.80315 ], [ -122.29685, 37.80559 ], [ -122.29807, 37.80601 ], [ -122.30541, 37.80765 ], [ -122.30808, 37.80804 ], [ -122.32622, 37.80974 ], [ -122.33048, 37.8099 ], [ -122.33242, 37.80985 ], [ -122.33748, 37.80948 ], [ -122.34099, 37.809 ], [ -122.37129, 37.80381 ], [ -122.37362, 37.80334 ], [ -122.37581, 37.80276 ], [ -122.37789, 37.80199 ], [ -122.39452, 37.79464 ], [ -122.41842, 37.77592 ], [ -122.41994, 37.77412 ], [ -122.42035, 37.77271 ], [ -122.42032, 37.77134 ], [ -122.41817, 37.74847 ], [ -122.42372, 37.74001 ], [ -122.4378, 37.73056 ], [ -122.44278, 37.72833 ], [ -122.44399, 37.72761 ], [ -122.44506, 37.72675 ], [ -122.44617, 37.72547 ], [ -122.44691, 37.72405 ], [ -122.44875, 37.71633 ], [ -122.45373, 37.71165 ], [ -122.45697, 37.71024 ], [ -122.46416, 37.71014 ], [ -122.46545, 37.70985 ], [ -122.46663, 37.70907 ], [ -122.4696, 37.70547 ] ], [ [ -122.46819, 37.707 ], [ -122.46506, 37.70991 ], [ -122.45696, 37.7102 ], [ -122.45369, 37.71162 ], [ -122.4487, 37.71631 ], [ -122.44684, 37.72404 ], [ -122.44502, 37.72672 ], [ -122.44301, 37.72816 ], [ -122.43774, 37.7305 ], [ -122.43539, 37.73196 ], [ -122.42367, 37.73997 ], [ -122.41807, 37.74846 ], [ -122.42021, 37.77134 ], [ -122.41982, 37.77408 ], [ -122.41831, 37.77583 ], [ -122.39444, 37.79463 ], [ -122.37787, 37.80195 ], [ -122.3736, 37.80329 ], [ -122.34098, 37.80896 ], [ -122.33242, 37.8098 ], [ -122.32622, 37.8097 ], [ -122.30542, 37.80761 ], [ -122.29824, 37.80602 ], [ -122.29076, 37.80312 ], [ -122.28426, 37.80153 ], [ -122.27809, 37.79865 ], [ -122.27498, 37.79879 ] ], [ [ -122.27374, 37.80007 ], [ -122.27428, 37.79929 ], [ -122.27456, 37.79903 ], [ -122.27498, 37.79879 ] ], [ [ -122.27498, 37.79879 ], [ -122.27374, 37.80007 ] ], [ [ -122.27374, 37.80007 ], [ -122.2723, 37.80045 ], [ -122.26786, 37.79871 ], [ -122.26344, 37.79617 ], [ -122.25822, 37.79247 ], [ -122.25664, 37.79156 ], [ -122.24055, 37.78473 ], [ -122.23112, 37.77862 ], [ -122.22193, 37.77357 ], [ -122.21691, 37.77096 ], [ -122.21237, 37.76668 ], [ -122.16454, 37.72661 ], [ -122.16314, 37.72515 ], [ -122.15936, 37.71975 ], [ -122.15838, 37.71877 ], [ -122.08331, 37.6671 ], [ -122.05422, 37.63052 ], [ -122.04972, 37.62202 ], [ -122.04919, 37.62117 ], [ -122.04854, 37.62032 ], [ -122.04726, 37.619 ], [ -122.03679, 37.60977 ], [ -122.02701, 37.59963 ], [ -122.02297, 37.59594 ], [ -122.02124, 37.59392 ], [ -122.02058, 37.59324 ], [ -122.01985, 37.59264 ], [ -122.00462, 37.58113 ], [ -121.99054, 37.57028 ], [ -121.98495, 37.56409 ], [ -121.98157, 37.56105 ], [ -121.98003, 37.55979 ], [ -121.97466, 37.55605 ], [ -121.97316, 37.55528 ], [ -121.9711, 37.55475 ], [ -121.96569, 37.55416 ], [ -121.96327, 37.55334 ], [ -121.95768, 37.5485 ], [ -121.95601, 37.54588 ], [ -121.95482, 37.54106 ], [ -121.95356, 37.52997 ], [ -121.95338, 37.52908 ], [ -121.95309, 37.52827 ], [ -121.90838, 37.44142 ], [ -121.88536, 37.39986 ], [ -121.87448, 37.36755 ] ], [ [ -121.87496, 37.36943 ], [ -121.88527, 37.39978 ], [ -121.90833, 37.44144 ], [ -121.95304, 37.52829 ], [ -121.95478, 37.54107 ], [ -121.95597, 37.54589 ], [ -121.95764, 37.54852 ], [ -121.96325, 37.55337 ], [ -121.96568, 37.5542 ], [ -121.97291, 37.55528 ], [ -121.97996, 37.55984 ], [ -121.98491, 37.56412 ], [ -121.99051, 37.57031 ], [ -122.00459, 37.58115 ], [ -122.02054, 37.59326 ], [ -122.02294, 37.59596 ], [ -122.03675, 37.6098 ], [ -122.0485, 37.62034 ], [ -122.05418, 37.63054 ], [ -122.08327, 37.66713 ], [ -122.15834, 37.7188 ], [ -122.16311, 37.72517 ], [ -122.1645, 37.72663 ], [ -122.21688, 37.77098 ], [ -122.2311, 37.77865 ], [ -122.24052, 37.78476 ], [ -122.25715, 37.79187 ], [ -122.26422, 37.79677 ], [ -122.26784, 37.79875 ], [ -122.27229, 37.80049 ], [ -122.27374, 37.80007 ] ] ] } },
{ "type": "Feature", "properties": { "system": "BART", "line": "Orange", "colour": "#faa61a", "offset_idx": -1, "draw_order": 5 }, "geometry": { "type": "MultiLineString", "coordinates": [ [ [ -122.2679, 37.81053 ], [ -122.26802, 37.8108 ], [ -122.26834, 37.8112 ], [ -122.27028, 37.81303 ], [ -122.27086, 37.81491 ], [ -122.26746, 37.82647 ], [ -122.26621, 37.83295 ], [ -122.26662, 37.83485 ], [ -122.26941, 37.83882 ], [ -122.27124, 37.84761 ], [ -122.271, 37.84971 ], [ -122.27006, 37.85199 ], [ -122.2674, 37.85902 ], [ -122.26712, 37.85981 ], [ -122.26699, 37.86045 ], [ -122.26701, 37.86113 ], [ -122.26824, 37.87122 ], [ -122.26849, 37.87245 ], [ -122.26871, 37.87284 ], [ -122.26937, 37.87343 ], [ -122.27017, 37.87373 ], [ -122.27066, 37.87379 ], [ -122.28022, 37.87284 ], [ -122.28561, 37.87487 ], [ -122.28742, 37.87619 ], [ -122.29149, 37.88483 ], [ -122.29559, 37.89746 ], [ -122.29609, 37.89868 ], [ -122.2965, 37.89945 ], [ -122.29727, 37.90055 ], [ -122.29957, 37.90345 ], [ -122.30858, 37.91456 ], [ -122.31912, 37.92804 ], [ -122.3201, 37.92909 ], [ -122.32079, 37.92967 ], [ -122.32158, 37.93018 ], [ -122.3227, 37.93068 ], [ -122.32383, 37.931 ], [ -122.32521, 37.93121 ], [ -122.33128, 37.93143 ], [ -122.34429, 37.93142 ], [ -122.34612, 37.9316 ], [ -122.34985, 37.93374 ], [ -122.35371, 37.93758 ] ], [ [ -122.35242, 37.93595 ], [ -122.35119, 37.93474 ], [ -122.34858, 37.9327 ], [ -122.34613, 37.93156 ], [ -122.34429, 37.93138 ], [ -122.32552, 37.93119 ], [ -122.32083, 37.92964 ], [ -122.29654, 37.89943 ], [ -122.29153, 37.88482 ], [ -122.28746, 37.87617 ], [ -122.28564, 37.87484 ], [ -122.28023, 37.8728 ], [ -122.27066, 37.87374 ], [ -122.26876, 37.87282 ], [ -122.26704, 37.86045 ], [ -122.27105, 37.84972 ], [ -122.27131, 37.84773 ], [ -122.26946, 37.83881 ], [ -122.26679, 37.83499 ], [ -122.26638, 37.83297 ], [ -122.27097, 37.8147 ], [ -122.27022, 37.81277 ], [ -122.2679, 37.81053 ] ], [ [ -122.2679, 37.81053 ], [ -122.2678, 37.81026 ], [ -122.26777, 37.81007 ], [ -122.26789, 37.80951 ], [ -122.27269, 37.801 ] ], [ [ -122.27269, 37.801 ], [ -122.268, 37.80934 ], [ -122.2679, 37.81053 ] ], [ [ -122.27269, 37.801 ], [ -122.27258, 37.8008 ], [ -122.27246, 37.80065 ], [ -122.27207, 37.80037 ], [ -122.2643, 37.79669 ], [ -122.25822, 37.79247 ], [ -122.25664, 37.79156 ], [ -122.24055, 37.78473 ], [ -122.23112, 37.77862 ], [ -122.22193, 37.77357 ], [ -122.21691, 37.77096 ], [ -122.21237, 37.76668 ], [ -122.16454, 37.72661 ], [ -122.16314, 37.72515 ], [ -122.15936, 37.71975 ], [ -122.15838, 37.71877 ], [ -122.08331, 37.6671 ], [ -122.05422, 37.63052 ], [ -122.04972, 37.62202 ], [ -122.04919, 37.62117 ], [ -122.04854, 37.62032 ], [ -122.04726, 37.619 ], [ -122.03679, 37.60977 ], [ -122.02701, 37.59963 ], [ -122.02297, 37.59594 ], [ -122.02124, 37.59392 ], [ -122.02058, 37.59324 ], [ -122.01985, 37.59264 ], [ -122.00462, 37.58113 ], [ -121.99054, 37.57028 ], [ -121.98495, 37.56409 ], [ -121.98157, 37.56105 ], [ -121.98003, 37.55979 ], [ -121.97466, 37.55605 ], [ -121.97316, 37.55528 ], [ -121.9711, 37.55475 ], [ -121.96569, 37.55416 ], [ -121.96327, 37.55334 ], [ -121.95768, 37.5485 ], [ -121.95601, 37.54588 ], [ -121.95482, 37.54106 ], [ -121.95356, 37.52997 ], [ -121.95338, 37.52908 ], [ -121.95309, 37.52827 ], [ -121.90838, 37.44142 ], [ -121.88536, 37.39986 ], [ -121.87448, 37.36755 ] ], [ [ -121.87496, 37.36943 ], [ -121.88527, 37.39978 ], [ -121.90833, 37.44144 ], [ -121.95304, 37.52829 ], [ -121.95478, 37.54107 ], [ -121.95597, 37.54589 ], [ -121.95764, 37.54852 ], [ -121.96325, 37.55337 ], [ -121.96568, 37.5542 ], [ -121.97291, 37.55528 ], [ -121.97996, 37.55984 ], [ -121.98491, 37.56412 ], [ -121.99051, 37.57031 ], [ -122.00459, 37.58115 ], [ -122.02054, 37.59326 ], [ -122.02294, 37.59596 ], [ -122.03675, 37.6098 ], [ -122.0485, 37.62034 ], [ -122.05418, 37.63054 ], [ -122.08327, 37.66713 ], [ -122.15834, 37.7188 ], [ -122.16311, 37.72517 ], [ -122.1645, 37.72663 ], [ -122.21688, 37.77098 ], [ -122.2311, 37.77865 ], [ -122.24052, 37.78476 ], [ -122.25662, 37.79159 ], [ -122.26422, 37.79677 ], [ -122.27269, 37.801 ] ] ] } },
{ "type": "Feature", "properties": { "system": "BART", "line": "Red", "colour": "#ed1c24", "offset_idx": 1, "draw_order": 5 }, "geometry": { "type": "MultiLineString", "coordinates": [ [ [ -122.40179, 37.6164 ], [ -122.40849, 37.62487 ], [ -122.41917, 37.64296 ], [ -122.42265, 37.64719 ], [ -122.42507, 37.64996 ], [ -122.42655, 37.65139 ], [ -122.42761, 37.65217 ], [ -122.435, 37.65638 ], [ -122.43666, 37.65785 ], [ -122.43879, 37.66046 ], [ -122.44, 37.66163 ], [ -122.4415, 37.66276 ], [ -122.44786, 37.66688 ], [ -122.45214, 37.67284 ], [ -122.45315, 37.6739 ], [ -122.45421, 37.67472 ], [ -122.45691, 37.67639 ], [ -122.46177, 37.68155 ], [ -122.46801, 37.68618 ], [ -122.46966, 37.68936 ], [ -122.46989, 37.69482 ], [ -122.47096, 37.69803 ], [ -122.47058, 37.70408 ], [ -122.46542, 37.70977 ], [ -122.46397, 37.7101 ], [ -122.4584, 37.71008 ], [ -122.45696, 37.7102 ], [ -122.45606, 37.7104 ], [ -122.45514, 37.71075 ], [ -122.45451, 37.71107 ], [ -122.45369, 37.71162 ], [ -122.45043, 37.71429 ], [ -122.44937, 37.71538 ], [ -122.4487, 37.71631 ], [ -122.44823, 37.7175 ], [ -122.44684, 37.72404 ], [ -122.44502, 37.72672 ], [ -122.44301, 37.72816 ], [ -122.43774, 37.7305 ], [ -122.43539, 37.73196 ], [ -122.42528, 37.73863 ], [ -122.42367, 37.73997 ], [ -122.42235, 37.74171 ], [ -122.41807, 37.74846 ], [ -122.42021, 37.77134 ], [ -122.41982, 37.77408 ], [ -122.41831, 37.77583 ], [ -122.39444, 37.79463 ], [ -122.37787, 37.80195 ], [ -122.3736, 37.80329 ], [ -122.34098, 37.80896 ], [ -122.33242, 37.8098 ], [ -122.32622, 37.8097 ], [ -122.30542, 37.80761 ], [ -122.29824, 37.80602 ], [ -122.29076, 37.80312 ], [ -122.28988, 37.80286 ], [ -122.28426, 37.80153 ], [ -122.27809, 37.79865 ], [ -122.27607, 37.79848 ], [ -122.27552, 37.79857 ], [ -122.27498, 37.79879 ] ], [ [ -122.27498, 37.79879 ], [ -122.27805, 37.79875 ], [ -122.28425, 37.80156 ], [ -122.29074, 37.80315 ], [ -122.29807, 37.80601 ], [ -122.30541, 37.80765 ], [ -122.32622, 37.80974 ], [ -122.33242, 37.80985 ], [ -122.34099, 37.809 ], [ -122.37362, 37.80334 ], [ -122.37789, 37.80199 ], [ -122.39452, 37.79464 ], [ -122.41842, 37.77592 ], [ -122.41994, 37.77412 ], [ -122.42032, 37.77134 ], [ -122.41817, 37.74847 ], [ -122.42372, 37.74001 ], [ -122.4378, 37.73056 ], [ -122.44278, 37.72833 ], [ -122.44506, 37.72675 ], [ -122.44691, 37.72405 ], [ -122.44875, 37.71633 ], [ -122.45373, 37.71165 ], [ -122.45697, 37.71024 ], [ -122.46416, 37.71014 ], [ -122.46563, 37.70977 ], [ -122.47073, 37.70415 ], [ -122.47104, 37.6978 ], [ -122.47, 37.69481 ], [ -122.46971, 37.68935 ], [ -122.46796, 37.68598 ], [ -122.46181, 37.68152 ], [ -122.45695, 37.67636 ], [ -122.45319, 37.67387 ], [ -122.44791, 37.66685 ], [ -122.44004, 37.6616 ], [ -122.4367, 37.65783 ], [ -122.43504, 37.65635 ], [ -122.42559, 37.65043 ], [ -122.41922, 37.64294 ], [ -122.40854, 37.62485 ], [ -122.40179, 37.6164 ] ], [ [ -122.39752, 37.61562 ], [ -122.39927, 37.61563 ], [ -122.40014, 37.61572 ], [ -122.40096, 37.61596 ], [ -122.40131, 37.61611 ], [ -122.40163, 37.61629 ], [ -122.40179, 37.6164 ] ], [ [ -122.40179, 37.6164 ], [ -122.39752, 37.61562 ] ], [ [ -122.39701, 37.61561 ], [ -122.39752, 37.61562 ] ], [ [ -122.39701, 37.61561 ], [ -122.39799, 37.61558 ], [ -122.39853, 37.61549 ], [ -122.39904, 37.61528 ], [ -122.39944, 37.61498 ], [ -122.39975, 37.61459 ], [ -122.39992, 37.61407 ], [ -122.39988, 37.61351 ], [ -122.39968, 37.61307 ], [ -122.39912, 37.61233 ], [ -122.39827, 37.61139 ], [ -122.38883, 37.60214 ] ], [ [ -122.39701, 37.61561 ], [ -122.39667, 37.61561 ] ], [ [ -122.39667, 37.61561 ], [ -122.3908, 37.6164 ] ], [ [ -122.38883, 37.60214 ], [ -122.39968, 37.61318 ], [ -122.39926, 37.61507 ], [ -122.39667, 37.61561 ] ], [ [ -122.38883, 37.60214 ], [ -122.38606, 37.59948 ] ], [ [ -122.2679, 37.81053 ], [ -122.26802, 37.8108 ], [ -122.26834, 37.8112 ], [ -122.27028, 37.81303 ], [ -122.27086, 37.81491 ], [ -122.26746, 37.82647 ], [ -122.26621, 37.83295 ], [ -122.26662, 37.83485 ], [ -122.26941, 37.83882 ], [ -122.27124, 37.84761 ], [ -122.271, 37.84971 ], [ -122.27006, 37.85199 ], [ -122.2674, 37.85902 ], [ -122.26712, 37.85981 ], [ -122.26699, 37.86045 ], [ -122.26701, 37.86113 ], [ -122.26824, 37.87122 ], [ -122.26849, 37.87245 ], [ -122.26871, 37.87284 ], [ -122.26937, 37.87343 ], [ -122.27017, 37.87373 ], [ -122.27066, 37.87379 ], [ -122.28022, 37.87284 ], [ -122.28561, 37.87487 ], [ -122.28742, 37.87619 ], [ -122.29149, 37.88483 ], [ -122.29559, 37.89746 ], [ -122.29609, 37.89868 ], [ -122.2965, 37.89945 ], [ -122.29727, 37.90055 ], [ -122.29957, 37.90345 ], [ -122.30858, 37.91456 ], [ -122.31912, 37.92804 ], [ -122.3201, 37.92909 ], [ -122.32079, 37.92967 ], [ -122.32158, 37.93018 ], [ -122.3227, 37.93068 ], [ -122.32383, 37.931 ], [ -122.32521, 37.93121 ], [ -122.33128, 37.93143 ], [ -122.34429, 37.93142 ], [ -122.34612, 37.9316 ], [ -122.34985, 37.93374 ], [ -122.35371, 37.93758 ] ], [ [ -122.35242, 37.93595 ], [ -122.35119, 37.93474 ], [ -122.34858, 37.9327 ], [ -122.34613, 37.93156 ], [ -122.34429, 37.93138 ], [ -122.32552, 37.93119 ], [ -122.32083, 37.92964 ], [ -122.29654, 37.89943 ], [ -122.29153, 37.88482 ], [ -122.28746, 37.87617 ], [ -122.28564, 37.87484 ], [ -122.28023, 37.8728 ], [ -122.27066, 37.87374 ], [ -122.26876, 37.87282 ], [ -122.26704, 37.86045 ], [ -122.27105, 37.84972 ], [ -122.27131, 37.84773 ], [ -122.26946, 37.83881 ], [ -122.26679, 37.83499 ], [ -122.26638, 37.83297 ], [ -122.27097, 37.8147 ], [ -122.27022, 37.81277 ], [ -122.2679, 37.81053 ] ], [ [ -122.2679, 37.81053 ], [ -122.2678, 37.81026 ], [ -122.26778, 37.80988 ], [ -122.26799, 37.80934 ], [ -122.27383, 37.79996 ], [ -122.27428, 37.79929 ], [ -122.27456, 37.79903 ], [ -122.27498, 37.79879 ] ], [ [ -122.27498, 37.79879 ], [ -122.268, 37.80934 ], [ -122.2679, 37.81053 ] ] ] } },
{ "type": "Feature", "properties": { "system": "BART", "line": "Yellow", "colour": "#ffe800", "offset_idx": 0, "draw_order": 5 }, "geometry": { "type": "MultiLineString", "coordinates": [ [ [ -122.40179, 37.6164 ], [ -122.40849, 37.62487 ], [ -122.41917, 37.64296 ], [ -122.42265, 37.64719 ], [ -122.42507, 37.64996 ], [ -122.42655, 37.65139 ], [ -122.42761, 37.65217 ], [ -122.435, 37.65638 ], [ -122.43666, 37.65785 ], [ -122.43879, 37.66046 ], [ -122.44, 37.66163 ], [ -122.4415, 37.66276 ], [ -122.44786, 37.66688 ], [ -122.45214, 37.67284 ], [ -122.45315, 37.6739 ], [ -122.45421, 37.67472 ], [ -122.45691, 37.67639 ], [ -122.46177, 37.68155 ], [ -122.46801, 37.68618 ], [ -122.46966, 37.68936 ], [ -122.46989, 37.69482 ], [ -122.47096, 37.69803 ], [ -122.47058, 37.70408 ], [ -122.46542, 37.70977 ], [ -122.46397, 37.7101 ], [ -122.4584, 37.71008 ], [ -122.45696, 37.7102 ], [ -122.45606, 37.7104 ], [ -122.45514, 37.71075 ], [ -122.45451, 37.71107 ], [ -122.45369, 37.71162 ], [ -122.45043, 37.71429 ], [ -122.44937, 37.71538 ], [ -122.4487, 37.71631 ], [ -122.44823, 37.7175 ], [ -122.44684, 37.72404 ], [ -122.44502, 37.72672 ], [ -122.44301, 37.72816 ], [ -122.43774, 37.7305 ], [ -122.43539, 37.73196 ], [ -122.42528, 37.73863 ], [ -122.42367, 37.73997 ], [ -122.42235, 37.74171 ], [ -122.41807, 37.74846 ], [ -122.42021, 37.77134 ], [ -122.41982, 37.77408 ], [ -122.41831, 37.77583 ], [ -122.39444, 37.79463 ], [ -122.37787, 37.80195 ], [ -122.3736, 37.80329 ], [ -122.34098, 37.80896 ], [ -122.33242, 37.8098 ], [ -122.32622, 37.8097 ], [ -122.3051, 37.80755 ], [ -122.2978, 37.80589 ], [ -122.29076, 37.80312 ], [ -122.28988, 37.80286 ], [ -122.28508, 37.80176 ], [ -122.28402, 37.80145 ], [ -122.27813, 37.79872 ], [ -122.2772, 37.79856 ], [ -122.27648, 37.79852 ], [ -122.27598, 37.79855 ] ], [ [ -122.27598, 37.79855 ], [ -122.27817, 37.79879 ], [ -122.28401, 37.80148 ], [ -122.28507, 37.8018 ], [ -122.29074, 37.80315 ], [ -122.29793, 37.80597 ], [ -122.30509, 37.80759 ], [ -122.32622, 37.80974 ], [ -122.33242, 37.80985 ], [ -122.34099, 37.809 ], [ -122.37362, 37.80334 ], [ -122.37789, 37.80199 ], [ -122.39452, 37.79464 ], [ -122.41842, 37.77592 ], [ -122.41994, 37.77412 ], [ -122.42032, 37.77134 ], [ -122.41817, 37.74847 ], [ -122.42372, 37.74001 ], [ -122.4378, 37.73056 ], [ -122.44278, 37.72833 ], [ -122.44506, 37.72675 ], [ -122.44691, 37.72405 ], [ -122.44875, 37.71633 ], [ -122.45373, 37.71165 ], [ -122.45697, 37.71024 ], [ -122.46416, 37.71014 ], [ -122.46563, 37.70977 ], [ -122.47073, 37.70415 ], [ -122.47104, 37.6978 ], [ -122.47, 37.69481 ], [ -122.46971, 37.68935 ], [ -122.46796, 37.68598 ], [ -122.46181, 37.68152 ], [ -122.45695, 37.67636 ], [ -122.45319, 37.67387 ], [ -122.44791, 37.66685 ], [ -122.44004, 37.6616 ], [ -122.4367, 37.65783 ], [ -122.43504, 37.65635 ], [ -122.42559, 37.65043 ], [ -122.41922, 37.64294 ], [ -122.40854, 37.62485 ], [ -122.40179, 37.6164 ] ], [ [ -122.39752, 37.61562 ], [ -122.39927, 37.61563 ], [ -122.40014, 37.61572 ], [ -122.40096, 37.61596 ], [ -122.40131, 37.61611 ], [ -122.40163, 37.61629 ], [ -122.40179, 37.6164 ] ], [ [ -122.40179, 37.6164 ], [ -122.39861, 37.61567 ] ], [ [ -122.39861, 37.61567 ], [ -122.39752, 37.61562 ] ], [ [ -122.39861, 37.61567 ], [ -122.39627, 37.61565 ], [ -122.39482, 37.61566 ] ], [ [ -122.39701, 37.61561 ], [ -122.39752, 37.61562 ] ], [ [ -122.39701, 37.61561 ], [ -122.39799, 37.61558 ], [ -122.39853, 37.61549 ], [ -122.39904, 37.61528 ], [ -122.39944, 37.61498 ], [ -122.39975, 37.61459 ], [ -122.39992, 37.61407 ], [ -122.39988, 37.61351 ], [ -122.39968, 37.61307 ], [ -122.39912, 37.61233 ], [ -122.39827, 37.61139 ], [ -122.38883, 37.60214 ] ], [ [ -122.39701, 37.61561 ], [ -122.39667, 37.61561 ] ], [ [ -122.39667, 37.61561 ], [ -122.39557, 37.61562 ] ], [ [ -122.38883, 37.60214 ], [ -122.39968, 37.61318 ], [ -122.39926, 37.61507 ], [ -122.39667, 37.61561 ] ], [ [ -122.39557, 37.61562 ], [ -122.39482, 37.61566 ] ], [ [ -122.39557, 37.61562 ], [ -122.39535, 37.61562 ], [ -122.39437, 37.61563 ], [ -122.39384, 37.61567 ], [ -122.3908, 37.6164 ] ], [ [ -122.39482, 37.61566 ], [ -122.39083, 37.61648 ] ], [ [ -122.38883, 37.60214 ], [ -122.38606, 37.59948 ] ], [ [ -122.26814, 37.81085 ], [ -122.26795, 37.81062 ], [ -122.2678, 37.81026 ], [ -122.26789, 37.80951 ], [ -122.27383, 37.79996 ], [ -122.27456, 37.79903 ], [ -122.2753, 37.79867 ], [ -122.27598, 37.79855 ] ], [ [ -122.27598, 37.79855 ], [ -122.2742, 37.79966 ], [ -122.26813, 37.80939 ], [ -122.26814, 37.81085 ] ], [ [ -122.26814, 37.81085 ], [ -122.27048, 37.81325 ], [ -122.27084, 37.81552 ], [ -122.26754, 37.8267 ], [ -122.26599, 37.8342 ], [ -122.26537, 37.83775 ], [ -122.26378, 37.84007 ], [ -122.24788, 37.84605 ], [ -122.24654, 37.8467 ], [ -122.23863, 37.85107 ], [ -122.18892, 37.87389 ], [ -122.18609, 37.87575 ], [ -122.18475, 37.87701 ], [ -122.18102, 37.8819 ], [ -122.17694, 37.88797 ], [ -122.17274, 37.89095 ], [ -122.16762, 37.89251 ], [ -122.16241, 37.89295 ], [ -122.14898, 37.8912 ], [ -122.14724, 37.89116 ], [ -122.14286, 37.89143 ], [ -122.13751, 37.89067 ], [ -122.1365, 37.89061 ], [ -122.13548, 37.89064 ], [ -122.13367, 37.89094 ], [ -122.12152, 37.89385 ], [ -122.09954, 37.89745 ], [ -122.08547, 37.898 ], [ -122.07933, 37.89741 ], [ -122.07758, 37.89742 ], [ -122.07595, 37.89765 ], [ -122.07453, 37.89804 ], [ -122.073, 37.89872 ], [ -122.07189, 37.89943 ], [ -122.07073, 37.90047 ], [ -122.06985, 37.90158 ], [ -122.06454, 37.91055 ], [ -122.06399, 37.91207 ], [ -122.06303, 37.91715 ], [ -122.05884, 37.92602 ], [ -122.05206, 37.93131 ], [ -122.0279, 37.94381 ], [ -122.027, 37.94441 ], [ -122.02646, 37.94489 ], [ -122.02577, 37.94569 ], [ -122.02538, 37.94632 ], [ -122.02501, 37.94729 ], [ -122.02489, 37.9479 ], [ -122.02487, 37.94886 ], [ -122.02506, 37.94983 ], [ -122.03138, 37.96624 ], [ -122.03112, 37.96887 ], [ -122.02842, 37.97514 ], [ -122.02824, 37.9759 ], [ -122.02828, 37.97667 ], [ -122.02867, 37.97761 ], [ -122.03027, 37.97996 ], [ -122.033, 37.98635 ], [ -122.03356, 37.98983 ], [ -122.03253, 37.99265 ], [ -122.02729, 37.99993 ], [ -122.01898, 38.00973 ], [ -122.01666, 38.01059 ], [ -121.99987, 38.01315 ], [ -121.99706, 38.0138 ], [ -121.99393, 38.01506 ], [ -121.98358, 38.02046 ], [ -121.97786, 38.02289 ], [ -121.97425, 38.02371 ], [ -121.96896, 38.02351 ], [ -121.94818, 38.01898 ], [ -121.94607, 38.01886 ], [ -121.93422, 38.01898 ] ], [ [ -121.93422, 38.01898 ], [ -121.94816, 38.01904 ], [ -121.96895, 38.02354 ], [ -121.97425, 38.02375 ], [ -121.97672, 38.02329 ], [ -121.97789, 38.02293 ], [ -121.97896, 38.02251 ], [ -121.98819, 38.01849 ], [ -121.99712, 38.01387 ], [ -122.01667, 38.01063 ], [ -122.01901, 38.00976 ], [ -122.02733, 37.99995 ], [ -122.03258, 37.99267 ], [ -122.03361, 37.98984 ], [ -122.03305, 37.98634 ], [ -122.03031, 37.97994 ], [ -122.02837, 37.97666 ], [ -122.03117, 37.96888 ], [ -122.03143, 37.96623 ], [ -122.02511, 37.94982 ], [ -122.02543, 37.94634 ], [ -122.02793, 37.94384 ], [ -122.05242, 37.93114 ], [ -122.05888, 37.92604 ], [ -122.06309, 37.91716 ], [ -122.06459, 37.91057 ], [ -122.06983, 37.9017 ], [ -122.07169, 37.89965 ], [ -122.07455, 37.89808 ], [ -122.07758, 37.89746 ], [ -122.08546, 37.89804 ], [ -122.09955, 37.89748 ], [ -122.12189, 37.89387 ], [ -122.13549, 37.89068 ], [ -122.14286, 37.89147 ], [ -122.14898, 37.89124 ], [ -122.16241, 37.89299 ], [ -122.16763, 37.89255 ], [ -122.17276, 37.89099 ], [ -122.17698, 37.88799 ], [ -122.18506, 37.8768 ], [ -122.18864, 37.8742 ], [ -122.23723, 37.85191 ], [ -122.24739, 37.84636 ], [ -122.26385, 37.84008 ], [ -122.26547, 37.83765 ], [ -122.26765, 37.82649 ], [ -122.27091, 37.81546 ], [ -122.27093, 37.81432 ], [ -122.27043, 37.81305 ], [ -122.26814, 37.81085 ] ], [ [ -121.93139, 38.01899 ], [ -121.93422, 38.01898 ] ], [ [ -121.93352, 38.01888 ], [ -121.92897, 38.01893 ], [ -121.92509, 38.0194 ] ], [ [ -121.92509, 38.0194 ], [ -121.91903, 38.02006 ], [ -121.90024, 38.01961 ], [ -121.88115, 38.01489 ], [ -121.86011, 38.0101 ], [ -121.81847, 37.99858 ], [ -121.81702, 37.99834 ], [ -121.81522, 37.99822 ], [ -121.79744, 37.99816 ], [ -121.77966, 37.9952 ] ], [ [ -121.78106, 37.99555 ], [ -121.79744, 37.9982 ], [ -121.81846, 37.99862 ], [ -121.8601, 38.01014 ], [ -121.90019, 38.01965 ], [ -121.91945, 38.02012 ], [ -121.92509, 38.0194 ] ] ] } },
{ "type": "Feature", "properties": { "system": "Caltrain", "line": "Caltrain", "colour": "#e31837", "offset_idx": 0, "draw_order": 4 }, "geometry": { "type": "MultiLineString", "coordinates": [ [ [ -122.39498, 37.77645 ], [ -122.39992, 37.77255 ], [ -122.40038, 37.77174 ], [ -122.40033, 37.77121 ], [ -122.39999, 37.77066 ], [ -122.39337, 37.76516 ], [ -122.3924, 37.75626 ], [ -122.39665, 37.72501 ], [ -122.40129, 37.71164 ] ], [ [ -122.40129, 37.71164 ], [ -122.40183, 37.70989 ], [ -122.40192, 37.70891 ], [ -122.40191, 37.69565 ], [ -122.40185, 37.69451 ], [ -122.40166, 37.69327 ], [ -122.40143, 37.6923 ], [ -122.40101, 37.69101 ], [ -122.40045, 37.68976 ], [ -122.39982, 37.68863 ], [ -122.3986, 37.68693 ], [ -122.39517, 37.68291 ] ], [ [ -122.40129, 37.71164 ], [ -122.40177, 37.70988 ], [ -122.40186, 37.70891 ], [ -122.40186, 37.69565 ], [ -122.4018, 37.69452 ], [ -122.40161, 37.69328 ], [ -122.40096, 37.69101 ], [ -122.4004, 37.68977 ], [ -122.39978, 37.68865 ], [ -122.39874, 37.68717 ], [ -122.39517, 37.68291 ] ], [ [ -122.40124, 37.71163 ], [ -122.3966, 37.72501 ], [ -122.39236, 37.75617 ], [ -122.39333, 37.76517 ], [ -122.39993, 37.77068 ], [ -122.40029, 37.77168 ], [ -122.39492, 37.7764 ] ], [ [ -122.39512, 37.68293 ], [ -122.39851, 37.68698 ], [ -122.39952, 37.68834 ], [ -122.40015, 37.6894 ], [ -122.40073, 37.69059 ], [ -122.40123, 37.69196 ], [ -122.40156, 37.69329 ], [ -122.40174, 37.69453 ], [ -122.40181, 37.69565 ], [ -122.4018, 37.70891 ], [ -122.40172, 37.70988 ], [ -122.40124, 37.71163 ] ], [ [ -122.39512, 37.68293 ], [ -122.39967, 37.68868 ], [ -122.40151, 37.69329 ], [ -122.40175, 37.70892 ], [ -122.40124, 37.71163 ] ], [ [ -122.39517, 37.68291 ], [ -122.39016, 37.67662 ], [ -122.38964, 37.67423 ], [ -122.39014, 37.67192 ], [ -122.39138, 37.67003 ], [ -122.4068, 37.65418 ], [ -122.41032, 37.64984 ], [ -122.41152, 37.64804 ], [ -122.41236, 37.64626 ], [ -122.41288, 37.64448 ], [ -122.41317, 37.64226 ], [ -122.41305, 37.63385 ], [ -122.41286, 37.63286 ], [ -122.41249, 37.63191 ], [ -122.40704, 37.62249 ], [ -122.39982, 37.61293 ], [ -122.39863, 37.61153 ], [ -122.38452, 37.59759 ], [ -122.38332, 37.59657 ], [ -122.38192, 37.5957 ], [ -122.37919, 37.59449 ], [ -122.33309, 37.57513 ], [ -122.32966, 37.57321 ], [ -122.31187, 37.557 ], [ -122.31065, 37.5553 ], [ -122.30855, 37.55108 ], [ -122.30716, 37.54899 ], [ -122.30005, 37.54046 ], [ -122.29497, 37.53526 ], [ -122.29402, 37.53443 ], [ -122.29107, 37.53218 ], [ -122.28208, 37.52605 ], [ -122.2748, 37.51994 ], [ -122.27127, 37.51712 ], [ -122.26792, 37.51465 ], [ -122.24416, 37.49401 ], [ -122.24235, 37.49268 ], [ -122.2396, 37.49092 ], [ -122.17575, 37.45062 ] ], [ [ -122.17693, 37.45142 ], [ -122.24413, 37.49403 ], [ -122.26785, 37.51467 ], [ -122.28204, 37.52608 ], [ -122.29492, 37.53529 ], [ -122.30709, 37.549 ], [ -122.31054, 37.55533 ], [ -122.31176, 37.55705 ], [ -122.32915, 37.57289 ], [ -122.33129, 37.57427 ], [ -122.33306, 37.57516 ], [ -122.38189, 37.59573 ], [ -122.39859, 37.61155 ], [ -122.40699, 37.62252 ], [ -122.41258, 37.63225 ], [ -122.41312, 37.64224 ], [ -122.4123, 37.64628 ], [ -122.41039, 37.64969 ], [ -122.39135, 37.67 ], [ -122.39007, 37.6719 ], [ -122.38956, 37.67422 ], [ -122.3901, 37.67664 ], [ -122.39512, 37.68293 ] ], [ [ -122.17693, 37.45142 ], [ -122.17575, 37.45062 ] ], [ [ -122.11294, 37.41104 ], [ -122.17693, 37.45142 ] ], [ [ -122.17575, 37.45062 ], [ -122.11416, 37.41176 ] ], [ [ -122.11416, 37.41176 ], [ -122.10603, 37.40662 ], [ -122.10414, 37.40562 ], [ -122.06342, 37.3894 ], [ -122.05774, 37.38747 ], [ -122.02096, 37.37541 ] ], [ [ -122.11416, 37.41176 ], [ -122.11294, 37.41104 ] ], [ [ -122.02094, 37.37545 ], [ -122.06351, 37.38947 ], [ -122.10353, 37.4054 ], [ -122.11294, 37.41104 ] ], [ [ -122.02096, 37.37541 ], [ -122.0181, 37.37442 ], [ -122.01631, 37.37391 ], [ -122.0022, 37.37103 ], [ -122.00002, 37.37066 ], [ -121.9931, 37.37035 ], [ -121.9813, 37.37049 ] ], [ [ -122.02096, 37.37541 ], [ -122.01765, 37.37432 ], [ -122.0163, 37.37395 ], [ -122.002, 37.37103 ], [ -122.00002, 37.37071 ], [ -121.99311, 37.3704 ], [ -121.9813, 37.37049 ] ], [ [ -121.9813, 37.37053 ], [ -121.99311, 37.37044 ], [ -122.00001, 37.37076 ], [ -122.00218, 37.37111 ], [ -122.01578, 37.37388 ], [ -122.01764, 37.37436 ], [ -122.02094, 37.37545 ] ], [ [ -121.9813, 37.37053 ], [ -122.00063, 37.37088 ], [ -122.02094, 37.37545 ] ], [ [ -121.90375, 37.33356 ], [ -121.90445, 37.33434 ], [ -121.90734, 37.33701 ], [ -121.90865, 37.33914 ], [ -121.90952, 37.33998 ], [ -121.91015, 37.34045 ], [ -121.93578, 37.35318 ], [ -121.9724, 37.36914 ], [ -121.97455, 37.36985 ], [ -121.97648, 37.37026 ], [ -121.97864, 37.3705 ], [ -121.97947, 37.37054 ], [ -121.9813, 37.37053 ] ], [ [ -121.9813, 37.37049 ], [ -121.97647, 37.37022 ], [ -121.97238, 37.36909 ], [ -121.93728, 37.35378 ], [ -121.91019, 37.34042 ], [ -121.90885, 37.33929 ], [ -121.90755, 37.33718 ], [ -121.90348, 37.33294 ] ], [ [ -121.90375, 37.33356 ], [ -121.90348, 37.33294 ] ], [ [ -121.90375, 37.33356 ], [ -121.90337, 37.3327 ], [ -121.90286, 37.32619 ] ], [ [ -121.90348, 37.33294 ], [ -121.90334, 37.33177 ] ], [ [ -121.90346, 37.32911 ], [ -121.90356, 37.33052 ], [ -121.90338, 37.33126 ] ], [ [ -121.90338, 37.33126 ], [ -121.90334, 37.33177 ] ], [ [ -121.90338, 37.33126 ], [ -121.90345, 37.33062 ], [ -121.90319, 37.32715 ], [ -121.90282, 37.32564 ] ], [ [ -121.90332, 37.33156 ], [ -121.90338, 37.33034 ] ], [ [ -121.90334, 37.33177 ], [ -121.90332, 37.33156 ] ], [ [ -121.90332, 37.33156 ], [ -121.90286, 37.32619 ] ], [ [ -121.90286, 37.32619 ], [ -121.90282, 37.32564 ] ], [ [ -121.90282, 37.32564 ], [ -121.90277, 37.32506 ] ], [ [ -121.88666, 37.31513 ], [ -121.88971, 37.31767 ], [ -121.89588, 37.3183 ], [ -121.89724, 37.31868 ], [ -121.89843, 37.31928 ], [ -121.89962, 37.32026 ], [ -121.90144, 37.32197 ], [ -121.90198, 37.32256 ], [ -121.90228, 37.32301 ], [ -121.90257, 37.32369 ], [ -121.90269, 37.3242 ], [ -121.90277, 37.32506 ] ], [ [ -121.88666, 37.31513 ], [ -121.88982, 37.3178 ], [ -121.89587, 37.31834 ], [ -121.8984, 37.31931 ], [ -121.90194, 37.32258 ], [ -121.90277, 37.32506 ] ], [ [ -121.88628, 37.31466 ], [ -121.88666, 37.31513 ] ], [ [ -121.88291, 37.31048 ], [ -121.88628, 37.31466 ] ], [ [ -121.88291, 37.31048 ], [ -121.88388, 37.31169 ], [ -121.88628, 37.31466 ] ], [ [ -121.88159, 37.30885 ], [ -121.88291, 37.31048 ] ], [ [ -121.88159, 37.30885 ], [ -121.8736, 37.29895 ], [ -121.87189, 37.29722 ], [ -121.86994, 37.29574 ], [ -121.86865, 37.29495 ], [ -121.8675, 37.29435 ], [ -121.86549, 37.29351 ], [ -121.85105, 37.28875 ] ], [ [ -121.88159, 37.30885 ], [ -121.87311, 37.29847 ], [ -121.86951, 37.29551 ], [ -121.86547, 37.29355 ], [ -121.85105, 37.28875 ] ], [ [ -121.85105, 37.28875 ], [ -121.84392, 37.2858 ], [ -121.8315, 37.27389 ], [ -121.82075, 37.2663 ], [ -121.7691, 37.23537 ], [ -121.75254, 37.22703 ], [ -121.749, 37.22459 ], [ -121.7324, 37.20954 ], [ -121.61737, 37.09723 ], [ -121.59347, 37.05626 ], [ -121.57447, 37.01928 ], [ -121.57088, 37.01377 ], [ -121.56646, 37.00388 ] ] ] } },
{ "type": "Feature", "properties": { "system": "Capitol Corridor", "line": "Capitol Corridor", "colour": "#1d1b4d", "offset_idx": 0, "draw_order": 3 }, "geometry": { "type": "MultiLineString", "coordinates": [ [ [ -122.31923, 37.90725 ], [ -122.32463, 37.91392 ], [ -122.3256, 37.91503 ], [ -122.32662, 37.91611 ], [ -122.32844, 37.91773 ], [ -122.35251, 37.93581 ], [ -122.35611, 37.93996 ], [ -122.3587, 37.94485 ], [ -122.35988, 37.94914 ], [ -122.36012, 37.95372 ], [ -122.35641, 37.99519 ], [ -122.3545, 37.99919 ], [ -122.35131, 38.0014 ], [ -122.34705, 38.00238 ], [ -122.34432, 38.0022 ], [ -122.33782, 38.00085 ], [ -122.33574, 38.00053 ], [ -122.33376, 38.00055 ], [ -122.33258, 38.00071 ], [ -122.33139, 38.001 ], [ -122.33022, 38.00142 ], [ -122.32928, 38.00186 ], [ -122.32416, 38.00509 ], [ -122.31605, 38.01099 ], [ -122.30922, 38.00977 ], [ -122.30831, 38.00984 ], [ -122.30528, 38.01034 ], [ -122.30003, 38.01005 ], [ -122.29896, 38.01014 ], [ -122.29797, 38.01048 ], [ -122.29733, 38.01087 ], [ -122.29655, 38.01147 ], [ -122.29387, 38.01399 ], [ -122.2925, 38.01549 ], [ -122.28975, 38.01899 ], [ -122.28873, 38.01993 ], [ -122.28322, 38.02177 ], [ -122.28232, 38.02227 ], [ -122.28183, 38.02274 ], [ -122.28072, 38.02428 ], [ -122.27955, 38.02651 ], [ -122.27711, 38.02835 ], [ -122.2763, 38.02931 ], [ -122.27565, 38.0306 ], [ -122.27517, 38.03186 ], [ -122.27498, 38.03252 ], [ -122.2745, 38.03541 ], [ -122.2737, 38.03658 ], [ -122.26538, 38.03948 ], [ -122.26437, 38.04002 ], [ -122.26361, 38.04067 ], [ -122.26331, 38.04102 ], [ -122.26299, 38.04154 ], [ -122.2627, 38.04237 ], [ -122.26176, 38.04864 ], [ -122.26064, 38.05019 ], [ -122.25938, 38.05082 ], [ -122.25175, 38.0513 ], [ -122.25088, 38.05144 ], [ -122.25024, 38.05164 ], [ -122.24948, 38.05201 ], [ -122.24878, 38.05253 ], [ -122.24601, 38.05541 ], [ -122.24063, 38.05792 ], [ -122.23626, 38.0571 ], [ -122.22256, 38.05566 ], [ -122.22179, 38.0557 ], [ -122.22091, 38.05587 ], [ -122.21796, 38.05688 ], [ -122.2165, 38.05697 ], [ -122.19901, 38.05303 ], [ -122.19702, 38.05277 ], [ -122.1915, 38.05247 ], [ -122.19051, 38.05221 ], [ -122.18556, 38.04942 ], [ -122.18288, 38.04702 ], [ -122.17911, 38.04444 ], [ -122.17683, 38.04078 ], [ -122.17521, 38.03875 ], [ -122.17457, 38.03527 ], [ -122.1742, 38.03433 ], [ -122.17341, 38.0334 ], [ -122.1713, 38.03196 ], [ -122.17021, 38.03033 ], [ -122.16949, 38.02961 ], [ -122.16866, 38.02914 ], [ -122.16169, 38.02585 ], [ -122.14812, 38.02062 ], [ -122.14403, 38.01933 ], [ -122.14277, 38.01911 ], [ -122.14144, 38.01908 ], [ -122.13881, 38.01931 ], [ -122.13538, 38.01989 ], [ -122.1331, 38.02073 ], [ -122.12931, 38.02303 ], [ -122.12219, 38.02488 ], [ -122.12089, 38.02548 ], [ -122.11986, 38.02623 ], [ -122.11926, 38.02685 ], [ -122.11884, 38.02743 ], [ -122.11832, 38.02873 ], [ -122.11772, 38.03321 ], [ -122.11776, 38.03412 ], [ -122.11794, 38.03477 ], [ -122.11844, 38.03564 ], [ -122.12809, 38.04818 ], [ -122.12881, 38.04979 ], [ -122.12844, 38.05517 ], [ -122.12673, 38.06127 ], [ -122.12546, 38.06361 ], [ -122.10615, 38.08513 ], [ -122.10159, 38.1021 ], [ -122.10098, 38.10517 ], [ -122.10081, 38.10696 ], [ -122.10078, 38.10895 ], [ -122.10107, 38.12758 ], [ -122.10015, 38.13216 ], [ -122.04157, 38.24322 ], [ -122.03633, 38.24785 ], [ -121.96668, 38.28606 ], [ -121.9588, 38.29057 ], [ -121.9568, 38.29197 ], [ -121.95463, 38.29379 ], [ -121.95323, 38.29536 ], [ -121.95185, 38.2972 ], [ -121.9401, 38.31591 ], [ -121.73834, 38.54265 ], [ -121.73419, 38.54448 ], [ -121.53893, 38.58834 ], [ -121.53292, 38.58858 ], [ -121.51201, 38.5875 ], [ -121.51016, 38.58724 ], [ -121.50499, 38.58588 ], [ -121.50385, 38.58576 ], [ -121.49764, 38.58643 ], [ -121.49462, 38.58781 ], [ -121.48838, 38.58863 ], [ -121.46949, 38.58367 ], [ -121.46828, 38.58343 ], [ -121.46587, 38.58313 ], [ -121.46432, 38.58282 ], [ -121.46068, 38.58164 ], [ -121.45998, 38.58147 ], [ -121.45867, 38.58131 ], [ -121.45717, 38.58138 ], [ -121.45571, 38.58168 ], [ -121.45388, 38.58232 ], [ -121.4523, 38.58325 ], [ -121.45192, 38.58354 ], [ -121.45135, 38.58418 ], [ -121.45109, 38.58467 ], [ -121.45038, 38.58779 ], [ -121.44986, 38.59511 ], [ -121.44722, 38.59987 ], [ -121.33275, 38.70553 ], [ -121.33012, 38.7082 ], [ -121.31234, 38.72867 ], [ -121.31093, 38.73045 ] ], [ [ -121.31093, 38.73045 ], [ -121.33279, 38.70556 ], [ -121.44728, 38.59987 ], [ -121.44985, 38.59532 ], [ -121.4511, 38.58482 ], [ -121.45391, 38.58235 ], [ -121.45717, 38.58142 ], [ -121.45997, 38.5815 ], [ -121.4643, 38.58285 ], [ -121.46586, 38.58317 ], [ -121.46947, 38.5837 ], [ -121.48839, 38.58866 ], [ -121.49454, 38.58788 ], [ -121.49716, 38.58679 ], [ -121.50396, 38.58582 ], [ -121.51027, 38.5873 ], [ -121.51222, 38.58755 ], [ -121.53293, 38.58861 ], [ -121.53683, 38.58857 ], [ -121.53894, 38.58838 ], [ -121.54043, 38.58817 ], [ -121.73417, 38.54451 ], [ -121.7384, 38.54268 ], [ -121.94022, 38.31587 ], [ -121.95204, 38.29703 ], [ -121.95462, 38.29392 ], [ -121.96018, 38.2898 ], [ -122.03636, 38.24788 ], [ -122.04151, 38.2434 ], [ -122.10019, 38.1322 ], [ -122.10112, 38.12752 ], [ -122.10096, 38.1058 ], [ -122.10481, 38.09098 ], [ -122.1082, 38.08642 ], [ -122.11853, 38.07849 ], [ -122.13049, 38.06376 ], [ -122.13054, 38.06119 ], [ -122.12871, 38.0568 ], [ -122.12896, 38.05048 ], [ -122.12868, 38.04913 ], [ -122.12813, 38.04817 ], [ -122.11847, 38.03562 ], [ -122.11788, 38.03447 ], [ -122.1184, 38.02862 ], [ -122.11996, 38.0262 ], [ -122.12221, 38.02492 ], [ -122.12932, 38.02307 ], [ -122.13515, 38.02003 ], [ -122.14039, 38.01923 ], [ -122.14408, 38.0194 ], [ -122.1616, 38.02585 ], [ -122.16944, 38.02964 ], [ -122.17124, 38.03195 ], [ -122.17405, 38.03417 ], [ -122.17523, 38.03888 ], [ -122.17925, 38.04466 ], [ -122.18567, 38.04955 ], [ -122.19066, 38.05231 ], [ -122.19151, 38.05252 ], [ -122.19828, 38.05294 ], [ -122.21645, 38.05701 ], [ -122.21798, 38.05692 ], [ -122.22266, 38.05572 ], [ -122.24058, 38.05797 ], [ -122.24602, 38.05545 ], [ -122.25026, 38.05168 ], [ -122.25936, 38.05087 ], [ -122.25998, 38.05065 ], [ -122.26083, 38.05009 ], [ -122.26184, 38.04857 ], [ -122.26341, 38.04095 ], [ -122.26533, 38.03955 ], [ -122.27348, 38.03683 ], [ -122.27416, 38.03614 ], [ -122.2745, 38.03555 ], [ -122.27628, 38.02943 ], [ -122.27966, 38.02645 ], [ -122.28181, 38.02282 ], [ -122.28319, 38.02182 ], [ -122.2878, 38.02043 ], [ -122.28861, 38.02005 ], [ -122.28902, 38.01975 ], [ -122.28972, 38.01908 ], [ -122.29403, 38.01389 ], [ -122.29769, 38.01066 ], [ -122.29954, 38.01011 ], [ -122.30512, 38.01038 ], [ -122.30929, 38.00982 ], [ -122.31431, 38.01108 ], [ -122.31609, 38.01103 ], [ -122.32456, 38.00488 ], [ -122.33094, 38.00118 ], [ -122.33596, 38.00059 ], [ -122.34489, 38.00232 ], [ -122.34664, 38.00243 ], [ -122.34795, 38.00235 ], [ -122.35003, 38.00192 ], [ -122.35164, 38.0013 ], [ -122.35319, 38.00039 ], [ -122.35472, 37.999 ], [ -122.35645, 37.9952 ], [ -122.36017, 37.95365 ], [ -122.35993, 37.94914 ], [ -122.35876, 37.94485 ], [ -122.35615, 37.93993 ], [ -122.35269, 37.93582 ], [ -122.32747, 37.91684 ], [ -122.31923, 37.90725 ] ], [ [ -122.29211, 37.83974 ], [ -122.30608, 37.88332 ], [ -122.30885, 37.89378 ], [ -122.31923, 37.90725 ] ], [ [ -122.29211, 37.83974 ], [ -122.29094, 37.83189 ], [ -122.29237, 37.82283 ], [ -122.29399, 37.82059 ], [ -122.29883, 37.81673 ], [ -122.30334, 37.81295 ], [ -122.30419, 37.81213 ], [ -122.30495, 37.81104 ], [ -122.30542, 37.80986 ], [ -122.30561, 37.80852 ], [ -122.30546, 37.80728 ], [ -122.30479, 37.80578 ], [ -122.3041, 37.80487 ], [ -122.30354, 37.80427 ], [ -122.30311, 37.80389 ], [ -122.30222, 37.80328 ], [ -122.29981, 37.80207 ], [ -122.2971, 37.80124 ], [ -122.28494, 37.79843 ], [ -122.28029, 37.79677 ] ], [ [ -122.28029, 37.79677 ], [ -122.28511, 37.79852 ], [ -122.29955, 37.80201 ], [ -122.30348, 37.80427 ], [ -122.30541, 37.80729 ], [ -122.3054, 37.80974 ], [ -122.30414, 37.81211 ], [ -122.29395, 37.82056 ], [ -122.29232, 37.82283 ], [ -122.29091, 37.83031 ], [ -122.29089, 37.83223 ], [ -122.2911, 37.83513 ], [ -122.29211, 37.83974 ] ], [ [ -122.2655, 37.79162 ], [ -122.27049, 37.79288 ], [ -122.28029, 37.79677 ] ], [ [ -122.2655, 37.79162 ], [ -122.25173, 37.78895 ], [ -122.24254, 37.78521 ], [ -122.21286, 37.76491 ], [ -122.20015, 37.75401 ] ], [ [ -122.20015, 37.75401 ], [ -122.21332, 37.76531 ], [ -122.24212, 37.78501 ], [ -122.24617, 37.78705 ], [ -122.2522, 37.78912 ], [ -122.2655, 37.79162 ] ], [ [ -122.20015, 37.75401 ], [ -122.01757, 37.59444 ], [ -122.00996, 37.58888 ], [ -122.00146, 37.58424 ], [ -121.98924, 37.57985 ], [ -121.9765, 37.57733 ], [ -121.97023, 37.57209 ], [ -121.97018, 37.57073 ], [ -121.97135, 37.56991 ], [ -122.00476, 37.56064 ], [ -122.00654, 37.55973 ], [ -122.03282, 37.52718 ], [ -122.03319, 37.52604 ], [ -122.03206, 37.52483 ], [ -122.00837, 37.51356 ], [ -121.97423, 37.48085 ], [ -121.97338, 37.47751 ], [ -121.97628, 37.4397 ], [ -121.97755, 37.43463 ], [ -121.97713, 37.42134 ], [ -121.9484, 37.37926 ], [ -121.94576, 37.37349 ], [ -121.94513, 37.36217 ], [ -121.94188, 37.35633 ], [ -121.93916, 37.35473 ] ], [ [ -121.90406, 37.33394 ], [ -121.90734, 37.33701 ], [ -121.91029, 37.34054 ], [ -121.91305, 37.34159 ], [ -121.93916, 37.35473 ] ], [ [ -121.93916, 37.35473 ], [ -121.91025, 37.34057 ], [ -121.90406, 37.33394 ] ], [ [ -121.90282, 37.32915 ], [ -121.90406, 37.33394 ] ], [ [ -121.23959, 38.78849 ], [ -121.24807, 38.77675 ], [ -121.2555, 38.7682 ], [ -121.26116, 38.75987 ], [ -121.26365, 38.75871 ], [ -121.26926, 38.75837 ], [ -121.27296, 38.7574 ], [ -121.28575, 38.74982 ], [ -121.29084, 38.74819 ], [ -121.30511, 38.73709 ], [ -121.31093, 38.73045 ] ], [ [ -121.23959, 38.78849 ], [ -121.23871, 38.78958 ], [ -121.23139, 38.79972 ] ], [ [ -121.23139, 38.79972 ], [ -121.23365, 38.79834 ], [ -121.23539, 38.7944 ], [ -121.23959, 38.78849 ] ], [ [ -121.13185, 38.87573 ], [ -121.13266, 38.87575 ], [ -121.13309, 38.8758 ], [ -121.13885, 38.87662 ], [ -121.14072, 38.87653 ], [ -121.15084, 38.87179 ], [ -121.1552, 38.87114 ], [ -121.1559, 38.87001 ], [ -121.15593, 38.86697 ], [ -121.15721, 38.86624 ], [ -121.16128, 38.86573 ], [ -121.16329, 38.86454 ], [ -121.16531, 38.86116 ], [ -121.16611, 38.85623 ], [ -121.1694, 38.854 ], [ -121.17089, 38.85063 ], [ -121.17538, 38.84823 ], [ -121.17621, 38.84547 ], [ -121.17798, 38.84322 ], [ -121.17708, 38.83946 ], [ -121.17759, 38.83792 ], [ -121.17934, 38.83685 ], [ -121.18506, 38.83607 ], [ -121.18804, 38.83427 ], [ -121.18941, 38.83233 ], [ -121.19204, 38.82452 ], [ -121.19896, 38.81702 ], [ -121.22187, 38.80289 ], [ -121.22579, 38.80117 ], [ -121.23139, 38.79972 ] ], [ [ -121.23139, 38.79972 ], [ -121.229, 38.80372 ], [ -121.2247, 38.81767 ], [ -121.22048, 38.82626 ], [ -121.22048, 38.84528 ], [ -121.21968, 38.84945 ], [ -121.21713, 38.85371 ], [ -121.20972, 38.86077 ], [ -121.20099, 38.86606 ], [ -121.18668, 38.87189 ], [ -121.18379, 38.87188 ], [ -121.17758, 38.86965 ], [ -121.17456, 38.86938 ], [ -121.15836, 38.87245 ], [ -121.15246, 38.87296 ], [ -121.14326, 38.8771 ], [ -121.14142, 38.87711 ], [ -121.13185, 38.87573 ] ], [ [ -121.13185, 38.87573 ], [ -121.13123, 38.87572 ], [ -121.13006, 38.87573 ], [ -121.1136, 38.87657 ], [ -121.11087, 38.87693 ], [ -121.10658, 38.87832 ], [ -121.09926, 38.8824 ], [ -121.09005, 38.88395 ], [ -121.08587, 38.88706 ], [ -121.08071, 38.89535 ], [ -121.08079, 38.89757 ], [ -121.08351, 38.90407 ] ] ] } },
{ "type": "Feature", "properties": { "system": "Ferry", "line": "Ferry", "colour": "#3d7ea6", "offset_idx": 0, "draw_order": 0 }, "geometry": { "type": "MultiLineString", "coordinates": [ [ [ -122.5084, 37.94473 ], [ -122.50655, 37.94353 ], [ -122.49903, 37.94085 ], [ -122.49655, 37.93869 ], [ -122.49056, 37.93646 ], [ -122.48326, 37.93652 ], [ -122.47807, 37.93546 ], [ -122.47344, 37.93392 ], [ -122.46773, 37.93105 ], [ -122.46135, 37.926 ], [ -122.41659, 37.88095 ] ], [ [ -122.47758, 37.85611 ], [ -122.43941, 37.84352 ], [ -122.39513, 37.82183 ] ], [ [ -122.2688, 38.10138 ], [ -122.2677, 38.10149 ], [ -122.26563, 38.09972 ], [ -122.26353, 38.10002 ], [ -122.26314, 38.09994 ], [ -122.26423, 38.09945 ], [ -122.26419, 38.09805 ], [ -122.25793, 38.09214 ], [ -122.24466, 38.07711 ], [ -122.24349, 38.07354 ], [ -122.24574, 38.07031 ], [ -122.27788, 38.0597 ], [ -122.32601, 38.05237 ], [ -122.33357, 38.04992 ], [ -122.3725, 38.03061 ], [ -122.38006, 38.02565 ], [ -122.44085, 37.96576 ], [ -122.44288, 37.96277 ], [ -122.44376, 37.95945 ], [ -122.44341, 37.95606 ], [ -122.44099, 37.95178 ], [ -122.42908, 37.93834 ], [ -122.42697, 37.93412 ], [ -122.41659, 37.88095 ] ], [ [ -122.41659, 37.88095 ], [ -122.4165, 37.88048 ], [ -122.39515, 37.8227 ], [ -122.395, 37.82175 ] ], [ [ -122.41659, 37.88095 ], [ -122.39508, 37.8227 ], [ -122.39473, 37.82148 ], [ -122.38852, 37.80566 ], [ -122.38846, 37.80498 ], [ -122.38915, 37.8013 ], [ -122.38935, 37.80076 ] ], [ [ -122.38956, 37.80083 ], [ -122.39227, 37.80522 ], [ -122.39787, 37.80963 ], [ -122.40302, 37.81268 ], [ -122.40864, 37.81393 ], [ -122.41115, 37.81366 ], [ -122.41341, 37.81192 ], [ -122.41322, 37.81056 ], [ -122.41219, 37.8095 ] ], [ [ -122.39514, 37.82192 ], [ -122.41045, 37.86391 ], [ -122.41252, 37.86682 ], [ -122.41946, 37.87222 ], [ -122.42574, 37.87384 ], [ -122.4325, 37.87373 ], [ -122.43505, 37.87249 ], [ -122.43722, 37.86985 ], [ -122.43677, 37.8689 ], [ -122.4355, 37.86867 ], [ -122.45121, 37.87129 ], [ -122.45545, 37.87274 ], [ -122.45389, 37.87102 ], [ -122.45049, 37.85991 ], [ -122.44443, 37.84836 ], [ -122.44113, 37.84456 ], [ -122.39514, 37.82192 ] ], [ [ -122.39514, 37.82192 ], [ -122.39513, 37.82183 ] ], [ [ -122.39514, 37.82192 ], [ -122.395, 37.82175 ] ], [ [ -122.39513, 37.82183 ], [ -122.38871, 37.80528 ], [ -122.38956, 37.80083 ] ], [ [ -122.39513, 37.82183 ], [ -122.39496, 37.82159 ] ], [ [ -122.395, 37.82175 ], [ -122.39496, 37.82159 ] ], [ [ -122.395, 37.82175 ], [ -122.3948, 37.82146 ], [ -122.39179, 37.81373 ] ], [ [ -122.39496, 37.82159 ], [ -122.38872, 37.80562 ], [ -122.38866, 37.80497 ], [ -122.38945, 37.80089 ] ], [ [ -122.39496, 37.82159 ], [ -122.39179, 37.81373 ] ], [ [ -122.38957, 37.80031 ], [ -122.39235, 37.79673 ], [ -122.39256, 37.7966 ], [ -122.39283, 37.79658 ], [ -122.39307, 37.79666 ], [ -122.39315, 37.79682 ] ], [ [ -122.38952, 37.80054 ], [ -122.3924, 37.79676 ], [ -122.39259, 37.79663 ], [ -122.39282, 37.79662 ], [ -122.39305, 37.79667 ], [ -122.39315, 37.79682 ] ], [ [ -122.39315, 37.79682 ], [ -122.39304, 37.79669 ], [ -122.39283, 37.79665 ], [ -122.39245, 37.79678 ], [ -122.38951, 37.8006 ] ], [ [ -122.38953, 37.80075 ], [ -122.3925, 37.79681 ], [ -122.39283, 37.79669 ], [ -122.39302, 37.79671 ], [ -122.39315, 37.79682 ] ], [ [ -122.38956, 37.80083 ], [ -122.39255, 37.79685 ], [ -122.39283, 37.79673 ], [ -122.39315, 37.79682 ] ], [ [ -122.39179, 37.81373 ], [ -122.38857, 37.80531 ], [ -122.38945, 37.80089 ] ], [ [ -122.39179, 37.81373 ], [ -122.38852, 37.80531 ], [ -122.38946, 37.80064 ] ], [ [ -122.39118, 37.79487 ], [ -122.38975, 37.79526 ], [ -122.38255, 37.79301 ] ], [ [ -122.38052, 37.79295 ], [ -122.38792, 37.79561 ], [ -122.38947, 37.7958 ], [ -122.39118, 37.79487 ] ], [ [ -122.39118, 37.79487 ], [ -122.38941, 37.80036 ] ], [ [ -122.38945, 37.80053 ], [ -122.38957, 37.80031 ] ], [ [ -122.38952, 37.80054 ], [ -122.38957, 37.80031 ] ], [ [ -122.38957, 37.80031 ], [ -122.3911, 37.7957 ], [ -122.3912, 37.79552 ], [ -122.3915, 37.79531 ], [ -122.39153, 37.79526 ], [ -122.39152, 37.79522 ], [ -122.39104, 37.79561 ], [ -122.38941, 37.80036 ] ], [ [ -122.38953, 37.80075 ], [ -122.38956, 37.80083 ] ], [ [ -122.38945, 37.80089 ], [ -122.38953, 37.80075 ] ], [ [ -122.3895, 37.80065 ], [ -122.38953, 37.80075 ] ], [ [ -122.38948, 37.80061 ], [ -122.38952, 37.80054 ] ], [ [ -122.38951, 37.8006 ], [ -122.38952, 37.80054 ] ], [ [ -122.38951, 37.8006 ], [ -122.38948, 37.80062 ] ], [ [ -122.3895, 37.80065 ], [ -122.38951, 37.8006 ] ], [ [ -122.38945, 37.80089 ], [ -122.3895, 37.80065 ] ], [ [ -122.38948, 37.80062 ], [ -122.3895, 37.80065 ] ], [ [ -122.38948, 37.80062 ], [ -122.38946, 37.80064 ] ], [ [ -122.38948, 37.80061 ], [ -122.38948, 37.80062 ] ], [ [ -122.38946, 37.80064 ], [ -122.38948, 37.80061 ] ], [ [ -122.38945, 37.80053 ], [ -122.38948, 37.80061 ] ], [ [ -122.38946, 37.80064 ], [ -122.38935, 37.80076 ] ], [ [ -122.38935, 37.80076 ], [ -122.38945, 37.80053 ] ], [ [ -122.38941, 37.80036 ], [ -122.38945, 37.80053 ] ], [ [ -122.38941, 37.80036 ], [ -122.38923, 37.80087 ] ], [ [ -122.38935, 37.80076 ], [ -122.38923, 37.80087 ] ], [ [ -122.38923, 37.80087 ], [ -122.3732, 37.81616 ] ], [ [ -122.38923, 37.80087 ], [ -122.38839, 37.80498 ], [ -122.38845, 37.80567 ], [ -122.41646, 37.8815 ], [ -122.40035, 37.90395 ], [ -122.39735, 37.90596 ], [ -122.39348, 37.90651 ], [ -122.36384, 37.90277 ], [ -122.36051, 37.9041 ], [ -122.35948, 37.90902 ] ], [ [ -122.36303, 37.78449 ], [ -122.36637, 37.78117 ], [ -122.37238, 37.77839 ], [ -122.38639, 37.77504 ] ], [ [ -122.38255, 37.79301 ], [ -122.38882, 37.79491 ], [ -122.38928, 37.795 ], [ -122.39021, 37.79495 ], [ -122.39066, 37.79481 ], [ -122.39085, 37.79461 ], [ -122.38884, 37.79487 ], [ -122.38229, 37.79293 ] ], [ [ -122.38255, 37.79301 ], [ -122.38229, 37.79293 ] ], [ [ -122.38255, 37.79301 ], [ -122.38052, 37.79295 ] ], [ [ -122.38229, 37.79293 ], [ -122.36303, 37.78449 ] ], [ [ -122.38229, 37.79293 ], [ -122.38042, 37.7929 ] ], [ [ -122.38052, 37.79295 ], [ -122.37932, 37.79309 ], [ -122.3441, 37.80031 ], [ -122.34178, 37.80069 ], [ -122.33942, 37.80067 ], [ -122.33746, 37.80035 ], [ -122.30567, 37.79245 ], [ -122.29254, 37.79255 ], [ -122.28019, 37.79451 ] ], [ [ -122.38042, 37.7929 ], [ -122.38052, 37.79295 ] ], [ [ -122.38042, 37.7929 ], [ -122.37931, 37.79303 ], [ -122.34408, 37.80026 ], [ -122.34177, 37.80063 ], [ -122.33943, 37.80061 ], [ -122.30569, 37.79239 ], [ -122.29515, 37.79215 ] ], [ [ -122.36142, 37.78641 ], [ -122.38042, 37.7929 ] ], [ [ -122.36142, 37.78641 ], [ -122.36303, 37.78449 ] ], [ [ -122.36303, 37.78449 ], [ -122.35674, 37.78162 ] ], [ [ -122.33752, 37.80013 ], [ -122.33945, 37.80046 ], [ -122.34173, 37.80046 ], [ -122.34399, 37.80009 ], [ -122.34627, 37.79928 ], [ -122.35204, 37.79656 ], [ -122.35408, 37.79503 ], [ -122.36142, 37.78641 ] ], [ [ -122.35676, 37.78486 ], [ -122.36142, 37.78641 ] ], [ [ -122.35676, 37.78486 ], [ -122.35678, 37.78781 ], [ -122.35575, 37.79246 ], [ -122.3539, 37.79487 ], [ -122.35201, 37.79642 ], [ -122.3462, 37.79914 ], [ -122.34398, 37.79995 ], [ -122.34172, 37.80033 ], [ -122.33948, 37.80034 ], [ -122.33763, 37.80005 ], [ -122.30587, 37.7921 ], [ -122.29494, 37.79202 ] ], [ [ -122.35674, 37.78162 ], [ -122.35676, 37.78486 ] ], [ [ -122.35655, 37.78479 ], [ -122.35676, 37.78486 ] ], [ [ -122.35674, 37.78162 ], [ -122.35659, 37.76179 ], [ -122.35616, 37.75535 ], [ -122.35353, 37.74411 ], [ -122.34971, 37.73101 ], [ -122.34977, 37.72339 ], [ -122.3665, 37.67077 ], [ -122.37048, 37.66495 ], [ -122.37239, 37.6642 ], [ -122.37418, 37.66438 ], [ -122.37668, 37.6644 ], [ -122.37721, 37.66373 ], [ -122.37663, 37.66432 ], [ -122.37239, 37.66412 ], [ -122.37101, 37.66451 ], [ -122.36969, 37.6656 ], [ -122.36879, 37.66663 ], [ -122.36642, 37.67076 ], [ -122.34969, 37.72338 ], [ -122.34964, 37.73102 ], [ -122.35567, 37.75359 ], [ -122.35653, 37.78152 ] ], [ [ -122.35674, 37.78162 ], [ -122.35653, 37.78152 ] ], [ [ -122.35655, 37.78479 ], [ -122.35554, 37.79237 ], [ -122.35378, 37.79476 ], [ -122.35197, 37.79635 ], [ -122.34613, 37.79907 ], [ -122.34174, 37.80024 ], [ -122.33763, 37.79997 ], [ -122.30593, 37.79202 ], [ -122.29594, 37.79196 ], [ -122.2945, 37.79112 ] ], [ [ -122.35653, 37.78152 ], [ -122.35655, 37.78479 ] ], [ [ -122.29923, 37.77716 ], [ -122.30479, 37.77704 ], [ -122.30919, 37.77432 ], [ -122.31082, 37.77392 ], [ -122.32972, 37.77587 ], [ -122.35655, 37.78479 ] ], [ [ -122.35653, 37.78152 ], [ -122.25744, 37.7363 ] ], [ [ -122.31961, 37.79565 ], [ -122.33752, 37.80013 ] ], [ [ -122.33752, 37.80013 ], [ -122.32771, 37.79768 ], [ -122.31961, 37.79565 ] ], [ [ -122.29515, 37.79215 ], [ -122.30577, 37.79222 ], [ -122.31961, 37.79565 ] ], [ [ -122.28019, 37.79451 ], [ -122.28187, 37.79396 ], [ -122.29515, 37.79215 ] ], [ [ -122.29515, 37.79215 ], [ -122.29494, 37.79202 ] ], [ [ -122.29494, 37.79202 ], [ -122.2818, 37.7939 ], [ -122.28019, 37.79451 ] ], [ [ -122.29494, 37.79202 ], [ -122.2945, 37.79112 ] ], [ [ -122.28019, 37.79451 ], [ -122.28176, 37.79382 ], [ -122.29409, 37.79207 ], [ -122.2945, 37.79112 ] ] ] } },
{ "type": "Feature", "properties": { "system": "SMART", "line": "SMART", "colour": "#2f7d5a", "offset_idx": 0, "draw_order": 2 }, "geometry": { "type": "MultiLineString", "coordinates": [ [ [ -122.81754, 38.54802 ], [ -122.81851, 38.54907 ] ], [ [ -122.81841, 38.54912 ], [ -122.74028, 38.45961 ] ], [ [ -122.74028, 38.45961 ], [ -122.72264, 38.4393 ], [ -122.72154, 38.43668 ], [ -122.72135, 38.43356 ] ], [ [ -122.72135, 38.43356 ], [ -122.72147, 38.43681 ], [ -122.72259, 38.43932 ], [ -122.74028, 38.45961 ] ], [ [ -122.72135, 38.43356 ], [ -122.72064, 38.37937 ], [ -122.69537, 38.33806 ] ], [ [ -122.69537, 38.33806 ], [ -122.69147, 38.33165 ], [ -122.68931, 38.32833 ] ], [ [ -122.68931, 38.32833 ], [ -122.69537, 38.33806 ] ], [ [ -122.68931, 38.32833 ], [ -122.68257, 38.31739 ], [ -122.67748, 38.30695 ], [ -122.672, 38.30049 ], [ -122.66785, 38.29828 ], [ -122.66412, 38.29449 ], [ -122.66346, 38.29177 ], [ -122.66545, 38.27968 ], [ -122.66427, 38.27593 ], [ -122.64436, 38.25672 ], [ -122.64326, 38.2541 ], [ -122.6416, 38.24182 ], [ -122.63914, 38.23973 ], [ -122.6326, 38.23605 ], [ -122.6288, 38.23498 ] ], [ [ -122.6288, 38.23498 ], [ -122.61772, 38.23283 ], [ -122.61592, 38.23151 ], [ -122.61417, 38.22875 ] ], [ [ -122.61417, 38.22875 ], [ -122.6159, 38.23156 ], [ -122.61769, 38.23287 ], [ -122.6288, 38.23498 ] ], [ [ -122.55421, 38.09345 ], [ -122.56602, 38.10875 ], [ -122.56635, 38.11944 ], [ -122.56322, 38.13069 ], [ -122.56447, 38.15582 ], [ -122.57369, 38.17654 ], [ -122.58311, 38.19093 ], [ -122.58468, 38.19783 ], [ -122.58508, 38.20572 ], [ -122.58699, 38.20811 ], [ -122.60691, 38.22261 ], [ -122.61177, 38.22529 ], [ -122.61417, 38.22875 ] ], [ [ -122.55421, 38.09345 ], [ -122.54596, 38.08359 ], [ -122.53753, 38.06809 ], [ -122.53701, 38.06731 ], [ -122.53598, 38.06609 ], [ -122.53509, 38.06529 ], [ -122.53374, 38.06432 ] ], [ [ -122.53374, 38.06432 ], [ -122.53748, 38.0681 ], [ -122.54591, 38.08361 ], [ -122.55421, 38.09345 ] ], [ [ -122.52248, 37.97303 ], [ -122.52127, 37.97924 ], [ -122.52446, 37.98514 ], [ -122.53264, 37.99201 ], [ -122.53895, 37.99313 ], [ -122.54073, 37.99517 ], [ -122.54008, 37.99894 ], [ -122.53214, 38.00641 ], [ -122.53061, 38.00861 ], [ -122.52521, 38.02049 ], [ -122.51922, 38.04056 ], [ -122.52065, 38.05028 ], [ -122.52158, 38.05259 ], [ -122.5256, 38.05869 ], [ -122.53374, 38.06432 ] ], [ [ -122.52248, 37.97303 ], [ -122.52297, 37.97106 ], [ -122.52265, 37.97007 ], [ -122.52135, 37.96868 ], [ -122.5142, 37.96228 ] ], [ [ -122.5142, 37.96228 ], [ -122.52248, 37.96994 ], [ -122.52248, 37.97303 ] ], [ [ -122.5142, 37.96228 ], [ -122.50846, 37.95719 ], [ -122.50756, 37.95506 ], [ -122.50797, 37.95319 ], [ -122.51154, 37.94938 ] ], [ [ -122.51154, 37.94938 ], [ -122.51255, 37.94781 ] ], [ [ -122.51154, 37.94938 ], [ -122.51245, 37.94778 ] ] ] } },
{ "type": "Feature", "properties": { "system": "VTA light rail", "line": "VTA light rail", "colour": "#7a8ca3", "offset_idx": 0, "draw_order": 1 }, "geometry": { "type": "MultiLineString", "coordinates": [ [ [ -122.07682, 37.39491 ], [ -122.07621, 37.39467 ] ], [ [ -122.07621, 37.39467 ], [ -122.06261, 37.38918 ], [ -122.06197, 37.38905 ], [ -122.0613, 37.38915 ], [ -122.06093, 37.38933 ], [ -122.0606, 37.38965 ], [ -122.0597, 37.39129 ], [ -122.05679, 37.39306 ], [ -122.05334, 37.39405 ], [ -122.05283, 37.39434 ], [ -122.05249, 37.39469 ], [ -122.04981, 37.40192 ], [ -122.04981, 37.40225 ], [ -122.05001, 37.40266 ], [ -122.051, 37.4036 ], [ -122.05086, 37.40481 ], [ -122.04697, 37.40354 ], [ -122.04014, 37.40203 ], [ -122.03844, 37.40174 ], [ -122.03083, 37.40258 ], [ -122.02893, 37.40308 ], [ -122.0268, 37.40405 ], [ -122.02644, 37.40458 ], [ -122.02627, 37.40571 ], [ -122.0272, 37.40898 ], [ -122.02503, 37.41416 ], [ -122.02143, 37.41238 ], [ -122.01255, 37.41018 ], [ -122.00975, 37.40677 ], [ -122.00964, 37.40556 ], [ -122.01028, 37.40332 ], [ -122.01023, 37.40304 ], [ -122.00989, 37.40281 ], [ -122.00755, 37.40235 ], [ -122.00675, 37.40245 ], [ -122.00452, 37.40327 ], [ -121.97868, 37.4033 ], [ -121.97584, 37.40334 ], [ -121.97369, 37.40359 ], [ -121.97257, 37.40386 ], [ -121.97145, 37.40425 ], [ -121.96212, 37.40814 ], [ -121.9616, 37.40842 ], [ -121.96116, 37.40876 ], [ -121.95952, 37.4106 ], [ -121.95756, 37.41129 ], [ -121.95536, 37.41097 ], [ -121.95091, 37.40833 ], [ -121.95031, 37.40806 ], [ -121.94978, 37.40791 ], [ -121.94871, 37.40782 ], [ -121.94769, 37.40795 ], [ -121.94699, 37.40819 ], [ -121.94546, 37.40891 ] ], [ [ -121.94537, 37.40901 ], [ -121.94782, 37.40796 ], [ -121.94971, 37.40794 ], [ -121.95535, 37.411 ], [ -121.95763, 37.41132 ], [ -121.95953, 37.41064 ], [ -121.96205, 37.40822 ], [ -121.97337, 37.4037 ], [ -122.00451, 37.4033 ], [ -122.00753, 37.4024 ], [ -122.01018, 37.40312 ], [ -122.00958, 37.40561 ], [ -122.00968, 37.40673 ], [ -122.01246, 37.41019 ], [ -122.02142, 37.41242 ], [ -122.02498, 37.4142 ], [ -122.02569, 37.41376 ], [ -122.02737, 37.40883 ], [ -122.02636, 37.40576 ], [ -122.02682, 37.4041 ], [ -122.03087, 37.40262 ], [ -122.03836, 37.40178 ], [ -122.05094, 37.4049 ], [ -122.05109, 37.40361 ], [ -122.04986, 37.40198 ], [ -122.05255, 37.39477 ], [ -122.05697, 37.39305 ], [ -122.05981, 37.39129 ], [ -122.06122, 37.38923 ], [ -122.06276, 37.38928 ], [ -122.07621, 37.39467 ] ], [ [ -121.94793, 37.27959 ], [ -121.94737, 37.28032 ] ], [ [ -121.94737, 37.28032 ], [ -121.94232, 37.28695 ] ], [ [ -121.94232, 37.28695 ], [ -121.94703, 37.28083 ], [ -121.94737, 37.28032 ] ], [ [ -121.94546, 37.40891 ], [ -121.94461, 37.40878 ] ], [ [ -121.94546, 37.40891 ], [ -121.94493, 37.40915 ] ], [ [ -121.94493, 37.40915 ], [ -121.94537, 37.40901 ] ], [ [ -121.94443, 37.40947 ], [ -121.94537, 37.40901 ] ], [ [ -121.94481, 37.40912 ], [ -121.94484, 37.40913 ], [ -121.94488, 37.40914 ], [ -121.94493, 37.40915 ], [ -121.94493, 37.40915 ] ], [ [ -121.94493, 37.40915 ], [ -121.94477, 37.40924 ] ], [ [ -121.94477, 37.40924 ], [ -121.94481, 37.40912 ] ], [ [ -121.94481, 37.40912 ], [ -121.94461, 37.40878 ] ], [ [ -121.9445, 37.40879 ], [ -121.94481, 37.40912 ] ], [ [ -121.94477, 37.40924 ], [ -121.94429, 37.40946 ] ], [ [ -121.94443, 37.40947 ], [ -121.94477, 37.40924 ] ], [ [ -121.94461, 37.40878 ], [ -121.93119, 37.39052 ], [ -121.90341, 37.35323 ], [ -121.89391, 37.34062 ], [ -121.89331, 37.33994 ] ], [ [ -121.9445, 37.40879 ], [ -121.94429, 37.40946 ] ], [ [ -121.89331, 37.33994 ], [ -121.9445, 37.40879 ] ], [ [ -121.83256, 37.35888 ], [ -121.83384, 37.36076 ], [ -121.83448, 37.36151 ], [ -121.84824, 37.37542 ], [ -121.86827, 37.3943 ], [ -121.87395, 37.39817 ], [ -121.88957, 37.40808 ], [ -121.90357, 37.41523 ], [ -121.90456, 37.41557 ], [ -121.9058, 37.41573 ], [ -121.91111, 37.41581 ], [ -121.91333, 37.41547 ], [ -121.91506, 37.41496 ], [ -121.916, 37.41452 ], [ -121.91976, 37.41169 ], [ -121.92279, 37.41107 ], [ -121.92509, 37.41127 ], [ -121.93103, 37.41333 ], [ -121.93206, 37.41347 ], [ -121.93306, 37.41342 ], [ -121.93855, 37.41223 ], [ -121.94443, 37.40947 ] ], [ [ -121.94429, 37.40946 ], [ -121.93854, 37.41214 ], [ -121.93305, 37.41334 ], [ -121.93121, 37.41328 ], [ -121.92508, 37.41122 ], [ -121.92277, 37.41103 ], [ -121.9197, 37.41165 ], [ -121.91586, 37.41452 ], [ -121.91255, 37.41556 ], [ -121.9058, 37.41568 ], [ -121.90363, 37.41516 ], [ -121.88916, 37.40777 ], [ -121.86825, 37.39422 ], [ -121.84847, 37.37558 ], [ -121.83256, 37.35888 ] ], [ [ -121.93116, 37.29865 ], [ -121.9379, 37.29253 ], [ -121.94232, 37.28695 ] ], [ [ -121.93116, 37.29865 ], [ -121.91803, 37.31046 ], [ -121.91669, 37.31181 ] ], [ [ -121.91669, 37.31181 ], [ -121.93116, 37.29865 ] ], [ [ -121.90351, 37.32758 ], [ -121.90291, 37.32489 ], [ -121.90336, 37.3239 ], [ -121.91669, 37.31181 ] ], [ [ -121.90351, 37.32758 ], [ -121.90318, 37.33057 ], [ -121.90204, 37.33003 ], [ -121.90157, 37.32996 ], [ -121.89978, 37.33004 ], [ -121.8973, 37.33053 ], [ -121.89673, 37.32914 ], [ -121.8957, 37.32781 ], [ -121.89532, 37.32778 ], [ -121.89481, 37.32803 ], [ -121.89438, 37.32806 ], [ -121.89389, 37.32829 ] ], [ [ -121.89365, 37.32844 ], [ -121.89567, 37.32785 ], [ -121.89727, 37.33057 ], [ -121.90147, 37.33 ], [ -121.90325, 37.33061 ], [ -121.90351, 37.32758 ] ], [ [ -121.89389, 37.32829 ], [ -121.89357, 37.32843 ] ], [ [ -121.89365, 37.32844 ], [ -121.89389, 37.32829 ] ], [ [ -121.89389, 37.32829 ], [ -121.89397, 37.32797 ], [ -121.89297, 37.32686 ], [ -121.89335, 37.32597 ], [ -121.89332, 37.32543 ], [ -121.89067, 37.32128 ], [ -121.88964, 37.31788 ], [ -121.88891, 37.31639 ], [ -121.88806, 37.31528 ], [ -121.88491, 37.31196 ], [ -121.87547, 37.29992 ], [ -121.87074, 37.28911 ], [ -121.86996, 37.2878 ], [ -121.86609, 37.28229 ], [ -121.86262, 37.27265 ], [ -121.85918, 37.2662 ], [ -121.85891, 37.25975 ], [ -121.8607, 37.25673 ], [ -121.86071, 37.25624 ], [ -121.86045, 37.2558 ], [ -121.86011, 37.25559 ], [ -121.85956, 37.25546 ], [ -121.84821, 37.25523 ], [ -121.84546, 37.25473 ], [ -121.82419, 37.24452 ], [ -121.8228, 37.24398 ], [ -121.82184, 37.2437 ], [ -121.82034, 37.24341 ], [ -121.81901, 37.24328 ], [ -121.80423, 37.24287 ], [ -121.79166, 37.23967 ], [ -121.79004, 37.23867 ] ], [ [ -121.88725, 37.33145 ], [ -121.89365, 37.32844 ] ], [ [ -121.89357, 37.32843 ], [ -121.88725, 37.33145 ] ], [ [ -121.79004, 37.23867 ], [ -121.79164, 37.23972 ], [ -121.80433, 37.24298 ], [ -121.82176, 37.24374 ], [ -121.84535, 37.25477 ], [ -121.84815, 37.25531 ], [ -121.86034, 37.2558 ], [ -121.86059, 37.25672 ], [ -121.85886, 37.25966 ], [ -121.85907, 37.26621 ], [ -121.85989, 37.26866 ], [ -121.86244, 37.27247 ], [ -121.86592, 37.28204 ], [ -121.87066, 37.28906 ], [ -121.87531, 37.29985 ], [ -121.88477, 37.31193 ], [ -121.88885, 37.31641 ], [ -121.8906, 37.32131 ], [ -121.89325, 37.32543 ], [ -121.8929, 37.32693 ], [ -121.89387, 37.32802 ], [ -121.89357, 37.32843 ] ], [ [ -121.88725, 37.33145 ], [ -121.89331, 37.33994 ] ], [ [ -121.89331, 37.33994 ], [ -121.8932, 37.33993 ], [ -121.89312, 37.33995 ], [ -121.89248, 37.34022 ], [ -121.89215, 37.3401 ], [ -121.88625, 37.33225 ], [ -121.88725, 37.33145 ] ], [ [ -121.83207, 37.35817 ], [ -121.83256, 37.35888 ] ], [ [ -121.79004, 37.23867 ], [ -121.78905, 37.23775 ], [ -121.78921, 37.23669 ] ] ] } }
]
}
